{"type":"FeatureCollection","features":[{"type":"Feature","properties":{"id":"US-WA","name":"Washington","country":"United States of America","iso":"USA"},"geometry":{"type":"MultiPolygon","coordinates":[[[[-122.8081,48.9345],[-117.0382,48.9925],[-117.044,46.3785],[-116.8788,46.0015],[-119.0024,45.9995],[-120.9001,45.6418],[-121.7926,45.7214],[-122.2611,45.5663],[-122.7216,45.6489],[-122.8065,45.9781],[-122.9667,46.1357],[-123.693,46.3052],[-124.0758,46.2683],[-124.0725,46.6425],[-124.0143,46.3851],[-123.9581,46.3782],[-123.8406,46.4158],[-123.9564,46.6231],[-123.764,46.6784],[-124.0934,46.7432],[-124.1268,46.8985],[-124.0213,46.8323],[-124.0469,46.8911],[-123.8131,46.959],[-124.1169,47.0429],[-124.1058,46.9334],[-124.1785,46.9255],[-124.4228,47.7419],[-124.672,47.9907],[-124.7275,48.3877],[-123.971,48.1656],[-123.2469,48.1153],[-123.15,48.1771],[-123.1083,48.1838],[-123.1613,48.1519],[-123.0079,48.0386],[-122.9275,48.0951],[-122.8733,47.9937],[-122.8778,48.1066],[-122.7702,48.1411],[-122.792,48.0829],[-122.6201,47.8776],[-122.8004,47.6799],[-122.8564,47.8261],[-123.1613,47.3568],[-123.0741,47.3446],[-122.8392,47.432],[-123.1135,47.391],[-122.571,47.8198],[-122.6132,47.946],[-122.5281,47.9055],[-122.4684,47.7565],[-122.661,47.7305],[-122.5922,47.5827],[-122.6969,47.6231],[-122.6815,47.5275],[-122.5531,47.5834],[-122.5079,47.5203],[-122.5685,47.2641],[-122.6863,47.3012],[-122.6279,47.38],[-122.6331,47.4046],[-122.7728,47.1731],[-122.8057,47.3978],[-123.0788,47.1303],[-122.9302,47.1745],[-123.0105,47.0825],[-122.9354,47.1303],[-122.8933,47.0473],[-122.8171,47.1657],[-122.7225,47.0893],[-122.5716,47.2093],[-122.5375,47.3159],[-122.4331,47.2649],[-122.3285,47.3571],[-122.4044,47.7976],[-122.1917,48.0263],[-122.3402,48.09],[-122.3756,48.2132],[-122.4695,48.1771],[-122.348,48.0543],[-122.5104,48.1474],[-122.534,48.2497],[-122.3859,48.3038],[-122.5589,48.434],[-122.6835,48.4302],[-122.633,48.5163],[-122.4889,48.4549],[-122.567,48.5854],[-122.4403,48.5807],[-122.5086,48.7557],[-122.6673,48.7319],[-122.8081,48.9345]]],[[[-123.0905,48.9925],[-123.0353,48.9925],[-123.0885,48.9722],[-123.0905,48.9925]]],[[[-123.9978,46.4534],[-123.9482,46.4642],[-123.9641,46.4068],[-123.9978,46.4534]]],[[[-122.471,47.4958],[-122.3668,47.3835],[-122.5273,47.3463],[-122.471,47.4958]]],[[[-122.4969,47.6071],[-122.5779,47.6015],[-122.5578,47.7138],[-122.511,47.6959],[-122.4969,47.6071]]],[[[-122.7308,48.0424],[-122.6869,48.0732],[-122.6815,48.0073],[-122.7308,48.0424]]],[[[-122.3594,47.9766],[-122.3867,47.9049],[-122.5392,47.9722],[-122.6072,48.1538],[-122.7441,48.2059],[-122.6566,48.3851],[-122.5176,48.294],[-122.7237,48.2338],[-122.5806,48.1885],[-122.5355,48.0059],[-122.514,48.0908],[-122.3594,47.9766]]],[[[-122.8871,48.5637],[-122.8277,48.4174],[-122.9376,48.4583],[-122.8871,48.5637]]],[[[-122.7354,48.5904],[-122.6745,48.5688],[-122.7143,48.5419],[-122.7354,48.5904]]],[[[-123.1776,48.5988],[-122.965,48.4515],[-123.1393,48.4958],[-123.1776,48.5988]]],[[[-122.7458,48.6644],[-122.821,48.6091],[-122.8964,48.6998],[-122.8744,48.5937],[-123.0265,48.6265],[-122.918,48.7114],[-122.7458,48.6644]]],[[[-122.6985,48.7347],[-122.6551,48.6647],[-122.7152,48.7391],[-122.6985,48.7347]]],[[[-122.7464,47.1537],[-122.6714,47.165],[-122.7011,47.124],[-122.7464,47.1537]]],[[[-122.9219,47.2372],[-122.8483,47.1933],[-122.8739,47.1679],[-122.9219,47.2372]]],[[[-123.411,46.1751],[-123.405,46.2009],[-123.3157,46.1485],[-123.411,46.1751]]]]}},{"type":"Feature","properties":{"id":"US-ND","name":"North Dakota","country":"United States of America","iso":"USA"},"geometry":{"type":"Polygon","coordinates":[[[-104.0476,48.9926],[-97.2261,48.9927],[-97.101,48.6505],[-97.1219,48.1327],[-96.8561,47.6019],[-96.7947,46.6423],[-96.6016,46.3239],[-96.5563,45.9418],[-104.0449,45.942],[-104.0476,48.9926]]]}},{"type":"Feature","properties":{"id":"US-MN","name":"Minnesota","country":"United States of America","iso":"USA"},"geometry":{"type":"Polygon","coordinates":[[[-97.2261,48.9927],[-95.1771,48.9927],[-95.1606,49.3695],[-94.9825,49.3562],[-94.8273,49.2929],[-94.6889,48.7788],[-93.8749,48.6362],[-93.7787,48.5195],[-92.9797,48.6177],[-92.6486,48.5363],[-92.7189,48.4598],[-92.4906,48.4331],[-92.3719,48.2226],[-92.2816,48.3318],[-92.0705,48.3467],[-91.5748,48.0482],[-91.2764,48.0648],[-90.8738,48.2343],[-90.7503,48.084],[-90.1204,48.1154],[-89.9205,47.9875],[-89.499,47.9951],[-89.9576,47.2861],[-90.654,47.3081],[-92.2892,46.663],[-92.2926,46.0833],[-92.7041,45.9131],[-92.8912,45.7038],[-92.8832,45.5761],[-92.7509,45.5592],[-92.663,45.4263],[-92.7593,45.2833],[-92.8198,44.7578],[-92.1026,44.4369],[-91.6626,44.0733],[-91.4075,44.0134],[-91.2842,43.8978],[-91.2501,43.501],[-96.4536,43.5001],[-96.4536,45.2966],[-96.8631,45.6008],[-96.5877,45.8388],[-96.5649,46.1714],[-96.7947,46.6423],[-96.8561,47.6019],[-97.1219,48.1327],[-97.101,48.6505],[-97.2261,48.9927]]]}},{"type":"Feature","properties":{"id":"US-MI","name":"Michigan","country":"United States of America","iso":"USA"},"geometry":{"type":"Polygon","coordinates":[[[-89.499,47.9951],[-88.3473,48.2987],[-84.8787,46.8979],[-84.7733,46.6334],[-84.5666,46.4612],[-84.1104,46.5265],[-84.0968,46.2248],[-83.9646,46.0632],[-83.6139,46.1156],[-83.4628,46.0078],[-83.6369,45.7739],[-82.5888,45.3718],[-82.1454,43.6006],[-82.5262,42.6199],[-83.08,42.3051],[-83.1309,41.938],[-83.4138,41.7353],[-87.2077,41.7597],[-87.0188,42.4962],[-87.1472,43.3799],[-87.0614,43.9696],[-86.7146,44.8452],[-86.2506,45.2361],[-86.7636,45.4438],[-87.0924,45.4438],[-87.4033,45.205],[-87.436,45.079],[-87.6536,45.1208],[-87.7348,45.1993],[-87.6612,45.3704],[-87.8822,45.3774],[-87.8026,45.687],[-88.11,45.8032],[-88.1232,45.9315],[-90.1185,46.3406],[-90.2303,46.5087],[-90.399,46.551],[-89.499,47.9951]]]}},{"type":"Feature","properties":{"id":"US-OH","name":"Ohio","country":"United States of America","iso":"USA"},"geometry":{"type":"Polygon","coordinates":[[[-83.1309,41.938],[-82.7111,41.6802],[-82.4513,41.6719],[-81.2767,42.2087],[-80.5202,42.3238],[-80.5202,40.6468],[-80.6768,40.5888],[-80.6006,40.3233],[-80.8411,39.7011],[-81.2116,39.4063],[-81.4632,39.4065],[-81.6824,39.271],[-81.8185,39.0798],[-81.764,38.9372],[-81.9017,38.8742],[-81.9374,38.9906],[-82.0584,39.0032],[-82.2087,38.786],[-82.1775,38.6118],[-82.3495,38.4379],[-82.589,38.4188],[-82.8982,38.7516],[-83.1515,38.6189],[-83.5343,38.7074],[-83.7143,38.6385],[-83.8659,38.7622],[-84.2176,38.8235],[-84.4659,39.1115],[-84.8235,39.0974],[-84.8061,41.6968],[-83.4138,41.7353],[-83.1309,41.938]]]}},{"type":"Feature","properties":{"id":"US-PA","name":"Pennsylvania","country":"United States of America","iso":"USA"},"geometry":{"type":"Polygon","coordinates":[[[-80.5202,42.3238],[-79.763,42.5377],[-79.7629,41.9999],[-75.339,41.9974],[-75.0789,41.8281],[-74.9843,41.4983],[-74.7045,41.3761],[-75.1288,40.9981],[-75.0576,40.8723],[-75.1982,40.7005],[-75.1822,40.5704],[-74.7286,40.1632],[-75.1478,39.9026],[-75.6521,39.8253],[-75.777,39.721],[-80.5194,39.7215],[-80.5202,42.3238]]]}},{"type":"Feature","properties":{"id":"US-NY","name":"New York","country":"United States of America","iso":"USA"},"geometry":{"type":"MultiPolygon","coordinates":[[[[-79.763,42.5377],[-78.919,42.8892],[-79.1743,43.4645],[-78.6881,43.6318],[-76.8415,43.6255],[-76.3278,44.1815],[-75.1296,44.9252],[-74.8865,45.0094],[-73.3513,45.0046],[-73.3773,44.6187],[-73.2931,44.4543],[-73.4385,44.0597],[-73.3634,43.7795],[-73.425,43.6069],[-73.247,43.552],[-73.2655,42.7456],[-73.5072,42.079],[-73.4841,41.2179],[-73.723,41.1035],[-73.6429,41.0011],[-73.7977,40.8132],[-73.9323,40.8178],[-73.9088,40.8686],[-73.9219,40.8868],[-73.8754,41.0133],[-73.8716,41.1155],[-73.9473,41.3111],[-73.9071,40.9908],[-74.9843,41.4983],[-75.0789,41.8281],[-75.339,41.9974],[-79.7629,41.9999],[-79.763,42.5377]]],[[[-73.9388,40.8282],[-73.9758,40.714],[-74.0169,40.6993],[-73.928,40.8775],[-73.9167,40.8633],[-73.9388,40.8282]]],[[[-73.2561,40.6391],[-73.3203,40.6351],[-73.5741,40.5751],[-73.3394,40.6446],[-73.2561,40.6391]]],[[[-74.1918,40.6283],[-74.0536,40.6027],[-74.2508,40.5014],[-74.1918,40.6283]]],[[[-73.0403,40.682],[-72.7571,40.7688],[-73.1475,40.6443],[-73.2458,40.6238],[-73.305,40.6299],[-73.2553,40.6297],[-73.0403,40.682]]],[[[-72.6246,40.9078],[-71.8574,41.0717],[-72.724,40.7704],[-72.6505,40.7975],[-73.7109,40.6102],[-73.5818,40.5845],[-73.9395,40.542],[-73.7688,40.6185],[-74.04,40.6198],[-73.9086,40.7887],[-73.7575,40.7711],[-73.7202,40.8662],[-73.4798,40.8772],[-73.4857,40.9456],[-72.6283,40.9836],[-72.2755,41.1626],[-72.6246,40.9078]]],[[[-71.9702,41.2736],[-72.0388,41.2494],[-71.9207,41.2914],[-71.9702,41.2736]]],[[[-72.3713,41.055],[-72.2805,41.0789],[-72.2755,41.0318],[-72.3713,41.055]]],[[[-72.1415,41.0968],[-72.0784,41.1],[-72.1008,41.0542],[-72.1415,41.0968]]]]}},{"type":"Feature","properties":{"id":"US-AZ","name":"Arizona","country":"United States of America","iso":"USA"},"geometry":{"type":"Polygon","coordinates":[[[-111.0063,31.3272],[-114.8221,32.5002],[-114.7208,32.7246],[-114.5359,32.7382],[-114.4607,32.8549],[-114.5017,33.0194],[-114.6967,33.0894],[-114.7235,33.3212],[-114.5326,33.5686],[-114.5159,33.9636],[-114.1191,34.2932],[-114.369,34.4715],[-114.617,34.8793],[-114.5719,35.2126],[-114.7413,36.0136],[-114.5548,36.1605],[-114.1239,36.0459],[-114.042,36.2198],[-114.0402,37.0031],[-109.0466,36.9998],[-109.0474,31.3274],[-111.0063,31.3272]]]}},{"type":"Feature","properties":{"id":"US-CA","name":"California","country":"United States of America","iso":"USA"},"geometry":{"type":"MultiPolygon","coordinates":[[[[-114.5359,32.7382],[-117.1251,32.5317],[-117.2262,32.6972],[-117.1151,32.6003],[-117.1332,32.6898],[-117.1746,32.7267],[-117.2553,32.6914],[-117.3222,33.1085],[-117.5088,33.3352],[-118.1174,33.7436],[-118.1929,33.7317],[-118.2215,33.7709],[-118.2546,33.7654],[-118.2768,33.7566],[-118.2913,33.7032],[-118.412,33.7417],[-118.5141,34.0222],[-119.1287,34.1005],[-119.5632,34.4148],[-120.4541,34.4428],[-120.6366,34.5629],[-120.6449,35.1394],[-120.8767,35.2238],[-120.8873,35.4329],[-121.2883,35.6648],[-121.5067,36.0033],[-121.8997,36.3044],[-121.9811,36.5837],[-121.7637,36.7221],[-121.8042,36.836],[-121.9056,36.9691],[-122.135,36.9657],[-122.3393,37.1186],[-122.5205,37.5314],[-122.5152,37.7811],[-122.4086,37.8104],[-122.3741,37.6042],[-122.1002,37.4551],[-122.0321,37.4634],[-122.2173,37.7585],[-122.3315,37.7824],[-122.3139,37.8858],[-122.4297,37.9643],[-122.3663,38.0123],[-121.69,38.0091],[-121.6067,38.0994],[-121.6128,38.0215],[-121.4454,38.0039],[-121.6041,38.1058],[-121.7787,38.036],[-121.6826,38.1472],[-121.8982,38.0532],[-122.0552,38.1337],[-122.1303,38.0421],[-122.3965,38.1532],[-122.5023,38.1135],[-122.4388,37.8821],[-122.5284,37.8164],[-122.9201,38.0653],[-122.9625,37.992],[-123.0275,37.9945],[-122.9963,38.2427],[-122.8257,38.0721],[-122.8323,38.0959],[-123.7262,38.9186],[-123.854,39.8335],[-124.3635,40.2615],[-124.4092,40.4438],[-124.2397,40.7587],[-124.2258,40.6861],[-124.0825,40.8435],[-124.2328,40.7666],[-124.0622,41.4359],[-124.1595,41.7367],[-124.2629,41.7764],[-124.2145,41.9995],[-120.0008,41.9995],[-120.0,38.9992],[-118.1262,37.6913],[-114.6282,35.0036],[-114.369,34.4715],[-114.1191,34.2932],[-114.5159,33.9636],[-114.5326,33.5686],[-114.7235,33.3212],[-114.6967,33.0894],[-114.5017,33.0194],[-114.4607,32.8549],[-114.5359,32.7382]]],[[[-118.3588,32.8278],[-118.4992,32.8506],[-118.6072,33.0309],[-118.5644,33.0238],[-118.3588,32.8278]]],[[[-119.5321,33.2863],[-119.4343,33.224],[-119.5789,33.2761],[-119.5321,33.2863]]],[[[-118.4636,33.3235],[-118.6039,33.4766],[-118.3692,33.4084],[-118.3043,33.309],[-118.4636,33.3235]]],[[[-120.0441,34.0373],[-119.9688,33.9411],[-120.1099,33.8931],[-120.2485,34.0011],[-120.0441,34.0373]]],[[[-120.3691,34.0762],[-120.3083,34.0182],[-120.4492,34.0359],[-120.3691,34.0762]]],[[[-119.5649,34.0553],[-119.8172,33.9593],[-119.933,34.0602],[-119.5649,34.0553]]],[[[-118.2675,33.747],[-118.2363,33.728],[-118.2576,33.7166],[-118.2675,33.747]]]]}},{"type":"Feature","properties":{"id":"US-TX","name":"Texas","country":"United States of America","iso":"USA"},"geometry":{"type":"MultiPolygon","coordinates":[[[[-106.2092,31.4773],[-106.6622,32.0003],[-103.0656,32.0017],[-103.0421,36.4996],[-100.0024,36.4999],[-99.9993,34.5755],[-99.6808,34.3947],[-99.4165,34.3804],[-99.3624,34.4623],[-99.1759,34.2206],[-98.586,34.1571],[-98.4907,34.0752],[-98.1065,34.1497],[-97.9267,33.8731],[-97.6406,33.9945],[-97.4364,33.827],[-97.2118,33.9101],[-97.1441,33.7251],[-96.9327,33.9573],[-96.7484,33.8489],[-96.6008,33.9049],[-96.3288,33.7019],[-95.9379,33.8956],[-95.7833,33.8554],[-95.5981,33.9521],[-95.3571,33.8682],[-95.2203,33.9629],[-94.3874,33.5618],[-94.0473,33.5542],[-94.0432,31.9982],[-93.8401,31.7904],[-93.8296,31.5938],[-93.5148,31.042],[-93.7305,30.5657],[-93.7172,30.0798],[-93.9244,29.8656],[-93.8758,29.675],[-94.102,29.6706],[-94.7628,29.3665],[-94.701,29.4628],[-94.5045,29.526],[-94.486,29.5661],[-94.779,29.5299],[-94.7341,29.7822],[-94.9196,29.6553],[-95.0523,29.7497],[-95.0239,29.5422],[-94.8211,29.374],[-95.1705,29.2089],[-95.1589,29.0457],[-95.6019,28.7639],[-95.952,28.6887],[-95.9402,28.6257],[-95.7192,28.7155],[-96.2189,28.4895],[-95.9878,28.6448],[-96.2265,28.5871],[-96.1369,28.6267],[-96.1881,28.6909],[-96.3458,28.6353],[-96.3833,28.73],[-96.4448,28.7639],[-96.3697,28.6267],[-96.4276,28.5954],[-96.4932,28.5789],[-96.4471,28.6356],[-96.6509,28.7297],[-96.4932,28.5106],[-96.5476,28.4693],[-96.4038,28.4349],[-96.6537,28.3195],[-96.7933,28.4797],[-96.7823,28.2416],[-96.8802,28.1506],[-96.9451,28.1265],[-96.9103,28.2636],[-96.973,28.1339],[-97.014,28.209],[-97.1732,28.159],[-97.1491,28.0055],[-97.0211,28.1003],[-97.1841,27.8366],[-97.5211,27.8732],[-97.2596,27.6951],[-97.4112,27.335],[-97.5416,27.2904],[-97.4869,27.4002],[-97.6302,27.3002],[-97.7743,27.4685],[-97.6676,27.3109],[-97.7743,27.2978],[-97.4261,27.2637],[-97.4807,27.022],[-97.5628,26.9937],[-97.4813,26.8776],[-97.562,26.8379],[-97.3105,26.1233],[-97.212,26.0912],[-97.2556,25.9989],[-97.1518,26.075],[-97.1375,25.9745],[-97.366,25.8439],[-97.6599,26.0307],[-98.2227,26.0754],[-98.8013,26.3721],[-99.1064,26.423],[-99.2483,26.8271],[-99.4617,27.057],[-99.515,27.5886],[-99.8329,27.7768],[-100.0565,28.1379],[-100.2751,28.2772],[-100.669,29.1162],[-101.2339,29.6227],[-101.3122,29.5979],[-101.4051,29.7784],[-102.1093,29.8021],[-102.321,29.8939],[-102.4061,29.7773],[-102.691,29.7368],[-102.8588,29.2291],[-103.1228,28.9965],[-103.3866,29.0288],[-104.444,29.5892],[-104.6805,29.9423],[-104.6816,30.1929],[-104.9343,30.6105],[-106.2092,31.4773]]],[[[-97.3771,27.2078],[-97.1664,26.1028],[-97.3975,26.831],[-97.405,27.1252],[-97.3916,27.1931],[-97.3771,27.2078]]],[[[-97.2541,27.6597],[-97.044,27.8353],[-97.3975,27.2289],[-97.2541,27.6597]]],[[[-96.8802,28.1301],[-96.8501,28.0712],[-97.0344,27.852],[-96.9726,28.0099],[-96.8802,28.1301]]],[[[-96.4277,28.3933],[-96.4169,28.3288],[-96.8358,28.0712],[-96.8078,28.1876],[-96.4277,28.3933]]],[[[-96.3697,28.4069],[-96.3129,28.4586],[-96.2325,28.4895],[-96.2839,28.4477],[-96.3697,28.4069]]],[[[-94.8341,29.3598],[-94.7244,29.3332],[-95.1165,29.089],[-94.8341,29.3598]]]]}},{"type":"Feature","properties":{"id":"US-LA","name":"Louisiana","country":"United States of America","iso":"USA"},"geometry":{"type":"MultiPolygon","coordinates":[[[[-89.526,30.1928],[-89.7084,30.1753],[-90.1894,30.3908],[-90.433,30.1433],[-90.1452,30.0238],[-89.6674,30.164],[-89.7179,30.0333],[-89.8404,30.0114],[-89.6645,29.8755],[-89.4862,30.0764],[-89.366,30.0487],[-89.4547,29.9764],[-89.3453,29.7917],[-89.4825,29.8333],[-89.6015,29.7348],[-89.4825,29.6341],[-89.7023,29.7098],[-89.6197,29.6273],[-89.7569,29.6341],[-89.5235,29.4696],[-89.5399,29.3978],[-89.1971,29.3535],[-89.0102,29.1747],[-89.097,29.1596],[-89.0232,29.1474],[-89.1337,28.9962],[-89.2477,29.1059],[-89.4136,28.9284],[-89.2762,29.1601],[-89.3837,29.0878],[-89.4552,29.2505],[-89.8181,29.3162],[-89.7438,29.3698],[-89.8163,29.4744],[-90.182,29.5795],[-90.2103,29.5151],[-90.0238,29.4286],[-90.0176,29.2983],[-90.2292,29.0867],[-90.2608,29.2695],[-90.3937,29.2431],[-90.4344,29.3572],[-90.6028,29.3076],[-90.7059,29.1195],[-91.2851,29.2609],[-91.328,29.2949],[-91.3397,29.3393],[-91.223,29.3802],[-91.154,29.2505],[-91.1131,29.271],[-91.2626,29.4691],[-91.2284,29.6081],[-91.2987,29.4838],[-91.5593,29.5385],[-91.6379,29.7421],[-91.8585,29.7191],[-91.8475,29.8312],[-92.2024,29.7644],[-92.0249,29.6273],[-92.2765,29.5338],[-93.1996,29.7728],[-93.831,29.7001],[-93.8937,29.7908],[-93.7819,29.8565],[-93.704,30.1438],[-93.7305,30.5657],[-93.5148,31.042],[-93.8296,31.5938],[-93.8401,31.7904],[-94.0432,31.9982],[-94.0413,33.0109],[-91.1665,33.0143],[-91.0719,32.9232],[-91.1573,32.7709],[-91.0702,32.7109],[-91.1682,32.6662],[-91.1052,32.4651],[-90.9132,32.3101],[-91.0954,32.1413],[-91.0914,32.0141],[-91.3513,31.8407],[-91.5289,31.5006],[-91.5288,31.2935],[-91.6479,31.2715],[-91.579,31.0562],[-91.6573,31.0002],[-89.7353,31.0001],[-89.8461,30.6825],[-89.526,30.1928]]],[[[-90.9151,29.0513],[-90.9032,29.0572],[-90.8796,29.0513],[-90.9151,29.0513]]],[[[-90.2838,29.0786],[-90.3108,29.0824],[-90.2838,29.086],[-90.2838,29.0786]]],[[[-90.0243,29.2385],[-89.9555,29.2573],[-90.0306,29.2164],[-90.0243,29.2385]]],[[[-89.173,29.4893],[-89.1662,29.4824],[-89.2218,29.4696],[-89.173,29.4893]]],[[[-91.7202,29.5817],[-91.8405,29.4838],[-92.0354,29.5962],[-91.7202,29.5817]]],[[[-89.4906,29.7938],[-89.4273,29.744],[-89.49,29.7365],[-89.4906,29.7938]]],[[[-89.337,29.8066],[-89.2772,29.8121],[-89.2907,29.7712],[-89.337,29.8066]]],[[[-89.279,29.9372],[-89.2355,29.9316],[-89.2939,29.9201],[-89.279,29.9372]]],[[[-89.2781,29.9821],[-89.2958,29.9422],[-89.3279,29.9159],[-89.2781,29.9821]]],[[[-88.8546,29.7692],[-88.8505,30.0468],[-88.8178,29.9835],[-88.8109,29.9152],[-88.821,29.8327],[-88.8546,29.7692]]],[[[-89.4394,30.1365],[-89.4249,30.1426],[-89.4313,30.1334],[-89.4394,30.1365]]],[[[-89.2499,30.102],[-89.2221,30.0338],[-89.3453,30.0661],[-89.1808,30.1685],[-89.2499,30.102]]],[[[-90.7672,29.0471],[-90.6422,29.0729],[-90.6563,29.0632],[-90.6728,29.0573],[-90.7494,29.041],[-90.7672,29.0471]]],[[[-90.4523,29.0696],[-90.4134,29.0486],[-90.5124,29.0749],[-90.4523,29.0696]]],[[[-90.4346,29.2645],[-90.4525,29.224],[-90.4463,29.2603],[-90.4346,29.2645]]],[[[-89.9338,29.2846],[-89.9132,29.2902],[-89.939,29.2772],[-89.9338,29.2846]]],[[[-90.1199,29.5055],[-90.0157,29.4438],[-90.0919,29.4735],[-90.1199,29.5055]]],[[[-89.057,29.5621],[-89.0499,29.565],[-89.0985,29.5209],[-89.057,29.5621]]],[[[-88.9783,29.6317],[-88.9701,29.6398],[-88.9645,29.6428],[-88.9783,29.6317]]],[[[-88.8896,29.7253],[-88.9388,29.6733],[-88.8741,29.7475],[-88.8896,29.7253]]]]}},{"type":"Feature","properties":{"id":"US-MS","name":"Mississippi","country":"United States of America","iso":"USA"},"geometry":{"type":"MultiPolygon","coordinates":[[[[-88.4022,30.3878],[-88.4706,30.3239],[-88.9276,30.4422],[-88.8594,30.4081],[-89.2535,30.3193],[-89.3218,30.3808],[-89.4425,30.1898],[-89.5649,30.1891],[-89.8461,30.6825],[-89.7353,31.0001],[-91.6573,31.0002],[-91.579,31.0562],[-91.6479,31.2715],[-91.5288,31.2935],[-91.5289,31.5006],[-91.3513,31.8407],[-91.0914,32.0141],[-91.0954,32.1413],[-90.9098,32.3243],[-91.1052,32.4651],[-91.1663,32.6445],[-91.0702,32.7109],[-91.1573,32.7709],[-91.0719,32.9232],[-91.1682,32.9815],[-91.0931,33.1675],[-91.2259,33.6899],[-91.0454,33.8145],[-91.093,33.9895],[-90.8801,34.0609],[-90.9559,34.1571],[-90.7594,34.3807],[-90.594,34.4251],[-90.568,34.7199],[-90.2718,34.9231],[-90.3042,35.0001],[-88.1791,34.9978],[-88.0882,34.9081],[-88.4862,31.8895],[-88.4022,30.3878]]],[[[-88.9674,30.2143],[-88.9278,30.2176],[-88.9693,30.2106],[-88.9674,30.2143]]],[[[-88.4342,30.2094],[-88.503,30.2238],[-88.4274,30.2163],[-88.4342,30.2094]]],[[[-89.077,30.2408],[-89.0846,30.1958],[-89.1536,30.2299],[-89.077,30.2408]]],[[[-88.6978,30.2579],[-88.5379,30.2244],[-88.7563,30.2504],[-88.6978,30.2579]]]]}},{"type":"Feature","properties":{"id":"US-AL","name":"Alabama","country":"United States of America","iso":"USA"},"geometry":{"type":"MultiPolygon","coordinates":[[[[-87.4052,30.6702],[-87.4737,30.3592],[-87.6118,30.3603],[-87.5902,30.2754],[-87.6545,30.2521],[-88.0301,30.2238],[-87.7642,30.2795],[-88.0301,30.7377],[-88.1263,30.3261],[-88.4022,30.3878],[-88.4862,31.8895],[-88.0894,34.892],[-88.1855,35.0097],[-85.6057,34.9852],[-85.2013,32.9352],[-84.8979,32.269],[-85.0314,32.1704],[-85.1439,31.824],[-85.0425,31.5353],[-85.101,31.1827],[-84.9974,31.0106],[-87.5936,30.9997],[-87.6211,30.8569],[-87.4052,30.6702]]],[[[-87.5292,30.2851],[-87.4463,30.2982],[-87.5292,30.2777],[-87.5292,30.2851]]],[[[-88.109,30.2761],[-88.091,30.2447],[-88.3113,30.2368],[-88.109,30.2761]]]]}},{"type":"Feature","properties":{"id":"US-FL","name":"Florida","country":"United States of America","iso":"USA"},"geometry":{"type":"MultiPolygon","coordinates":[[[[-87.4473,30.3131],[-87.3448,30.4399],[-87.439,30.5287],[-87.4052,30.6702],[-87.6253,30.8652],[-87.5936,30.9997],[-85.0066,31.0001],[-84.8758,30.7191],[-82.2398,30.5647],[-82.1662,30.3646],[-82.0486,30.3754],[-82.0413,30.7367],[-81.962,30.8184],[-81.4403,30.7008],[-81.4378,30.5241],[-81.489,30.621],[-81.5003,30.5513],[-81.2389,29.7373],[-80.5282,28.4726],[-80.5922,28.2079],[-80.4509,27.8664],[-80.6199,28.207],[-80.6004,28.6003],[-80.7659,28.6123],[-80.7523,28.7419],[-80.8481,28.7906],[-80.7383,28.3735],[-80.381,27.6661],[-80.3454,27.5146],[-80.1978,27.196],[-80.197,27.1805],[-80.2172,27.2094],[-80.3143,27.2426],[-80.1488,27.1383],[-80.0382,26.8112],[-80.1288,25.7753],[-80.1406,25.9008],[-80.3069,25.6182],[-80.4025,25.1862],[-80.5655,25.246],[-80.7109,25.1453],[-81.102,25.1247],[-81.1771,25.2278],[-81.1649,25.2981],[-81.13,25.3445],[-81.0779,25.2729],[-80.9853,25.2346],[-81.0058,25.2142],[-80.9172,25.2458],[-81.1413,25.3848],[-81.3485,25.8168],[-81.6227,25.9472],[-81.732,25.9205],[-81.6644,25.9813],[-81.8009,26.0986],[-81.8559,26.4489],[-82.0087,26.4845],[-81.7804,26.715],[-82.0391,26.5279],[-82.097,26.9094],[-81.9784,26.9962],[-82.1552,26.9276],[-82.2738,27.016],[-82.1503,26.8032],[-82.3138,26.8494],[-82.5736,27.3951],[-82.6984,27.4548],[-82.7292,27.5147],[-82.5892,27.5032],[-82.39,27.8111],[-82.4217,27.9172],[-82.5271,27.8248],[-82.5411,27.9428],[-82.691,28.0377],[-82.6444,27.9687],[-82.7189,27.9278],[-82.5619,27.8862],[-82.654,27.6951],[-82.8151,27.8322],[-82.7394,27.7286],[-82.7189,27.6597],[-82.8424,27.8285],[-82.6336,28.8876],[-82.8009,29.1747],[-83.0407,29.1801],[-83.6806,29.9213],[-84.024,30.1066],[-84.2091,30.1071],[-84.3836,30.0319],[-84.3463,29.9699],[-84.4535,30.0052],[-84.4661,29.9897],[-84.343,29.9468],[-84.349,29.902],[-84.3773,29.8874],[-84.5084,29.9221],[-84.8754,29.7332],[-84.8733,29.8046],[-85.3461,29.6784],[-85.3565,29.8887],[-85.6796,30.1343],[-85.4424,30.0202],[-85.395,30.0556],[-85.7205,30.1958],[-85.5555,30.2851],[-85.5868,30.3261],[-85.8544,30.2648],[-85.7205,30.1343],[-86.5109,30.4076],[-86.1078,30.3867],[-86.2071,30.5049],[-87.1941,30.3603],[-86.8938,30.4389],[-87.0296,30.6073],[-87.0774,30.4497],[-87.1806,30.5847],[-87.1804,30.436],[-87.4473,30.3131]]],[[[-81.8103,24.5582],[-81.732,24.5562],[-81.8146,24.5425],[-81.8103,24.5582]]],[[[-81.7257,24.5562],[-81.6569,24.5978],[-81.6501,24.5761],[-81.7257,24.5562]]],[[[-81.506,24.6388],[-81.5308,24.6152],[-81.6365,24.5836],[-81.5272,24.6245],[-81.5607,24.6934],[-81.506,24.6388]]],[[[-81.0762,24.7091],[-81.1361,24.707],[-81.0399,24.7344],[-81.0762,24.7091]]],[[[-81.4303,24.7548],[-81.3555,24.6862],[-81.3627,24.6313],[-81.3642,24.6612],[-81.4303,24.7548]]],[[[-80.9556,24.7687],[-80.9589,24.7493],[-81.0331,24.7207],[-80.9556,24.7687]]],[[[-80.845,24.8144],[-80.8022,24.8099],[-80.855,24.8033],[-80.845,24.8144]]],[[[-80.2516,25.3445],[-80.3615,25.1595],[-80.5786,24.9503],[-80.598,24.9501],[-80.3573,25.2274],[-80.369,25.2861],[-80.2516,25.3445]]],[[[-80.1882,25.4984],[-80.2169,25.4155],[-80.238,25.406],[-80.1882,25.4984]]],[[[-80.1583,25.6793],[-80.1833,25.7138],[-80.1561,25.7349],[-80.1583,25.6793]]],[[[-82.2049,26.5505],[-82.0268,26.4475],[-82.1639,26.4543],[-82.2049,26.5505]]],[[[-82.2477,26.6544],[-82.246,26.6945],[-82.2255,26.6113],[-82.2477,26.6544]]],[[[-82.082,26.4915],[-82.1324,26.6098],[-82.1776,26.7013],[-82.1136,26.6544],[-82.082,26.4915]]],[[[-82.2875,26.8031],[-82.258,26.7585],[-82.2664,26.715],[-82.2875,26.8031]]],[[[-82.649,27.3813],[-82.681,27.4341],[-82.5892,27.3244],[-82.649,27.3813]]],[[[-80.2926,27.4173],[-80.4446,27.8575],[-80.1629,27.1737],[-80.2926,27.4173]]],[[[-80.629,28.1811],[-80.6407,28.2042],[-80.6486,28.2227],[-80.629,28.1811]]],[[[-80.7374,28.4848],[-80.6122,28.5688],[-80.6498,28.2252],[-80.7374,28.4848]]],[[[-85.0861,29.6857],[-85.1719,29.6688],[-85.2128,29.6887],[-85.0861,29.6857]]],[[[-84.9875,29.6204],[-85.0973,29.6273],[-84.6927,29.7644],[-84.9875,29.6204]]],[[[-84.6569,29.7871],[-84.5764,29.8198],[-84.6647,29.7787],[-84.6569,29.7871]]],[[[-87.2965,30.3323],[-86.5218,30.4013],[-87.2412,30.3261],[-87.2965,30.3323]]],[[[-82.1283,24.5537],[-82.1138,24.5573],[-82.1288,24.5508],[-82.1283,24.5537]]],[[[-82.1105,24.5655],[-82.1457,24.5927],[-82.1348,24.593],[-82.1105,24.5655]]],[[[-81.4148,24.6477],[-81.4176,24.6594],[-81.4106,24.6554],[-81.4148,24.6477]]],[[[-81.2775,24.6576],[-81.2584,24.6676],[-81.276,24.6556],[-81.2775,24.6576]]],[[[-81.4607,24.6644],[-81.4393,24.6604],[-81.4414,24.6505],[-81.4607,24.6644]]],[[[-81.515,24.6977],[-81.4813,24.6498],[-81.5202,24.6741],[-81.515,24.6977]]],[[[-81.3409,24.7001],[-81.3207,24.6945],[-81.3178,24.675],[-81.3409,24.7001]]],[[[-80.7297,24.8628],[-80.7108,24.8643],[-80.7384,24.8507],[-80.7297,24.8628]]],[[[-80.6255,24.9362],[-80.6185,24.9416],[-80.6571,24.9011],[-80.6255,24.9362]]],[[[-81.0784,25.3017],[-81.0398,25.2967],[-81.0669,25.2768],[-81.0784,25.3017]]],[[[-81.1165,25.3419],[-81.0907,25.3128],[-81.1222,25.3366],[-81.1165,25.3419]]],[[[-81.4295,25.8509],[-81.4396,25.8039],[-81.4405,25.8424],[-81.4295,25.8509]]],[[[-81.4744,25.8725],[-81.512,25.8361],[-81.5169,25.8598],[-81.4744,25.8725]]],[[[-81.7084,25.8987],[-81.66,25.8865],[-81.6962,25.8658],[-81.7084,25.8987]]],[[[-81.5583,25.9034],[-81.5336,25.8786],[-81.5458,25.8537],[-81.5583,25.9034]]],[[[-82.6832,28.7377],[-82.6737,28.7144],[-82.696,28.7256],[-82.6832,28.7377]]],[[[-82.6738,28.7667],[-82.6949,28.7876],[-82.6799,28.7847],[-82.6738,28.7667]]],[[[-83.0503,29.1557],[-83.0297,29.1398],[-83.0582,29.1362],[-83.0503,29.1557]]]]}},{"type":"Feature","properties":{"id":"US-GA","name":"Georgia","country":"United States of America","iso":"USA"},"geometry":{"type":"MultiPolygon","coordinates":[[[[-81.136,32.1355],[-80.8357,32.0029],[-80.9805,31.8654],[-81.1182,31.9077],[-81.0399,31.827],[-81.1055,31.7427],[-81.2733,31.7655],[-81.1963,31.7176],[-81.3311,31.5524],[-81.3257,31.3489],[-81.4924,31.3677],[-81.2677,31.2587],[-81.386,31.1417],[-81.4548,31.206],[-81.4241,31.0251],[-81.5135,31.0933],[-81.4508,31.0219],[-81.5197,30.9841],[-81.4508,30.9636],[-81.5334,30.8537],[-81.5,30.7122],[-81.962,30.8184],[-82.0413,30.7367],[-82.0577,30.3692],[-82.1919,30.3739],[-82.2398,30.5647],[-84.8758,30.7191],[-85.101,31.1827],[-85.0425,31.5353],[-85.1439,31.824],[-85.0314,32.1704],[-84.8979,32.269],[-85.2013,32.9352],[-85.6057,34.9852],[-83.1148,35.0004],[-83.3555,34.7084],[-82.8573,34.4606],[-82.5705,33.9678],[-81.9381,33.4761],[-81.7597,33.1559],[-81.5176,33.0396],[-81.4058,32.6243],[-81.1318,32.3212],[-81.136,32.1355]]],[[[-81.4617,30.7258],[-81.4822,30.9044],[-81.4173,30.9704],[-81.4617,30.7258]]],[[[-81.3003,31.4115],[-81.1746,31.5214],[-81.2796,31.3855],[-81.3003,31.4115]]],[[[-81.1795,31.6359],[-81.1364,31.6984],[-81.161,31.5673],[-81.1795,31.6359]]]]}},{"type":"Feature","properties":{"id":"US-SC","name":"South Carolina","country":"United States of America","iso":"USA"},"geometry":{"type":"MultiPolygon","coordinates":[[[[-78.5732,33.8826],[-78.938,33.6421],[-79.1835,33.2179],[-79.272,33.3173],[-79.2323,33.4121],[-79.2995,33.2968],[-79.1835,33.1838],[-79.3404,33.1558],[-79.2926,33.1087],[-79.3715,33.064],[-79.387,33.0173],[-79.5848,33.0138],[-79.5887,32.9141],[-79.8287,32.7628],[-79.9438,32.8515],[-79.8714,32.7083],[-80.0051,32.6116],[-80.2659,32.6214],[-80.2045,32.5606],[-80.3312,32.4864],[-80.6698,32.5211],[-80.4782,32.4781],[-80.5875,32.4569],[-80.4584,32.4232],[-80.5471,32.3471],[-80.4298,32.4098],[-80.4708,32.3227],[-80.6368,32.2668],[-80.6573,32.4627],[-80.6783,32.3027],[-80.7593,32.3608],[-80.7856,32.4967],[-80.855,32.5395],[-80.7989,32.3197],[-80.6778,32.2147],[-80.8208,32.1081],[-80.7772,32.2073],[-80.7799,32.2447],[-80.911,32.0339],[-81.136,32.1355],[-81.1318,32.3212],[-81.4058,32.6243],[-81.5176,33.0396],[-81.7597,33.1559],[-81.9381,33.4761],[-82.5705,33.9678],[-82.8573,34.4606],[-83.3555,34.7084],[-83.1148,35.0004],[-82.3912,35.2183],[-81.061,35.1522],[-81.0452,35.0646],[-80.9336,35.1127],[-80.7929,34.9617],[-80.784,34.8276],[-79.6535,34.7957],[-78.5732,33.8826]]],[[[-79.3631,33.043],[-79.361,33.0057],[-79.3684,33.0057],[-79.3631,33.043]]]]}},{"type":"Feature","properties":{"id":"US-NC","name":"North Carolina","country":"United States of America","iso":"USA"},"geometry":{"type":"MultiPolygon","coordinates":[[[[-76.0317,36.5503],[-75.7855,36.0816],[-75.9617,36.307],[-75.9081,36.165],[-76.1988,36.3227],[-76.0635,36.162],[-76.292,36.2127],[-76.2201,36.0995],[-76.463,36.206],[-76.3115,36.0961],[-76.5773,36.0124],[-76.687,36.0561],[-76.6796,36.2875],[-76.7298,36.3227],[-76.7298,35.9453],[-76.0483,35.9837],[-76.0563,35.7934],[-76.1242,35.7946],[-76.0372,35.6988],[-76.1409,35.6988],[-76.0309,35.651],[-75.99,35.8869],[-75.8614,35.8807],[-75.8529,35.98],[-75.7218,35.8292],[-75.7538,35.6118],[-75.8863,35.6374],[-76.1504,35.3472],[-76.3553,35.4135],[-76.3736,35.3432],[-76.4183,35.4645],[-76.4984,35.3913],[-76.5752,35.4975],[-76.463,35.5412],[-76.6473,35.5207],[-76.5998,35.3951],[-77.052,35.5344],[-76.4704,35.2706],[-76.6752,35.1706],[-76.5605,35.1244],[-76.7645,34.9892],[-77.0793,35.157],[-76.9403,34.9798],[-76.5399,34.9321],[-76.4538,35.0734],[-76.4618,34.9406],[-76.3531,35.0272],[-76.2699,34.9652],[-76.5128,34.7344],[-76.616,34.8161],[-76.633,34.7092],[-76.6852,34.8007],[-76.7708,34.7535],[-76.702,34.7256],[-77.0933,34.677],[-77.1317,34.7624],[-77.318,34.5643],[-77.4356,34.7535],[-77.3789,34.5272],[-77.5359,34.4686],[-77.7305,34.3159],[-77.8327,34.207],[-77.8744,34.1223],[-77.9111,33.9582],[-77.942,33.9305],[-77.9216,34.1086],[-77.9626,34.1911],[-78.0323,33.8923],[-78.3747,33.9509],[-78.559,33.869],[-79.6535,34.7957],[-80.784,34.8276],[-80.7929,34.9617],[-80.9336,35.1127],[-81.0452,35.0646],[-81.061,35.1522],[-82.3912,35.2183],[-83.0965,35.0006],[-84.3246,34.9871],[-84.2906,35.2299],[-84.0784,35.2683],[-83.8887,35.5123],[-82.9906,35.7837],[-82.9075,35.9459],[-82.6298,36.0574],[-82.5596,35.9618],[-82.2132,36.1592],[-82.0779,36.1037],[-81.8924,36.3167],[-81.7164,36.3436],[-81.6589,36.6095],[-76.0317,36.5503]]],[[[-75.962,36.543],[-75.9521,36.4933],[-76.0133,36.5502],[-75.962,36.543]]],[[[-75.8531,36.549],[-75.7864,36.282],[-75.5238,35.7944],[-75.7195,36.01],[-75.8531,36.549]]],[[[-77.9952,33.8993],[-77.97,33.848],[-78.0178,33.8759],[-77.9952,33.8993]]],[[[-77.8602,34.1004],[-77.8442,34.1667],[-77.8192,34.1775],[-77.8602,34.1004]]],[[[-77.5787,34.4254],[-77.353,34.5276],[-77.6342,34.3625],[-77.5787,34.4254]]],[[[-76.6343,34.6915],[-76.5377,34.6422],[-76.6548,34.6915],[-76.6343,34.6915]]],[[[-77.0998,34.6498],[-76.7336,34.7176],[-76.6815,34.7051],[-77.0998,34.6498]]],[[[-76.4078,34.7944],[-76.2023,34.9447],[-76.5306,34.5891],[-76.4078,34.7944]]],[[[-76.1064,35.0303],[-76.0372,35.0613],[-76.147,34.9925],[-76.1064,35.0303]]],[[[-76.0173,35.075],[-75.9398,35.1269],[-75.7703,35.1979],[-76.0173,35.075]]],[[[-75.5171,35.7807],[-75.4518,35.5825],[-75.5156,35.2602],[-75.7357,35.1877],[-75.5163,35.291],[-75.5171,35.7807]]],[[[-75.6593,35.836],[-75.661,35.9248],[-75.6254,35.8301],[-75.6593,35.836]]]]}},{"type":"Feature","properties":{"id":"US-VA","name":"Virginia","country":"United States of America","iso":"USA"},"geometry":{"type":"MultiPolygon","coordinates":[[[[-75.9578,36.7194],[-76.0446,36.5895],[-83.6675,36.604],[-83.1285,36.7533],[-82.6815,37.1371],[-81.9652,37.5387],[-81.9274,37.3708],[-81.5839,37.2048],[-81.3635,37.3346],[-81.2241,37.2443],[-80.8824,37.3258],[-80.8459,37.4248],[-80.2943,37.5092],[-80.225,37.6216],[-80.2849,37.6851],[-79.7945,38.2739],[-79.6486,38.5881],[-79.2845,38.4269],[-78.9987,38.8423],[-78.8677,38.7882],[-78.4204,39.157],[-78.3222,39.4508],[-77.8357,39.1442],[-77.7347,39.3311],[-77.4667,39.2438],[-77.4958,39.1239],[-77.033,38.854],[-77.0478,38.7157],[-77.2299,38.6567],[-77.3385,38.3426],[-77.0408,38.3959],[-76.9542,38.2102],[-76.6146,38.1504],[-76.2479,37.9035],[-76.2501,37.8228],[-76.3249,37.8487],[-76.3047,37.6379],[-76.505,37.6569],[-76.935,38.0937],[-77.0626,38.166],[-77.1339,38.166],[-76.9259,38.0588],[-76.552,37.6268],[-76.2842,37.5696],[-76.3934,37.5331],[-76.2701,37.5174],[-76.2576,37.3355],[-76.4152,37.4427],[-76.3719,37.288],[-76.496,37.2491],[-76.7298,37.4945],[-76.7982,37.5044],[-76.6062,37.2958],[-76.4681,37.214],[-76.3856,37.2325],[-76.2962,37.0136],[-76.4292,36.9763],[-76.634,37.2207],[-76.7438,37.1975],[-76.8602,37.3231],[-76.9315,37.2453],[-76.9905,37.3203],[-77.2779,37.3293],[-76.718,37.15],[-76.67,37.185],[-76.6597,37.0433],[-76.4947,36.954],[-76.5244,36.8632],[-76.2917,36.8496],[-76.31,36.9596],[-76.0046,36.9324],[-75.8531,36.549],[-75.9578,36.7194]]],[[[-75.909,36.5494],[-75.949,36.5616],[-75.9143,36.5759],[-75.909,36.5494]]],[[[-75.3774,38.0152],[-75.8873,37.357],[-75.9664,37.1348],[-76.015,37.2816],[-75.9217,37.6105],[-75.661,37.8433],[-75.743,37.9122],[-75.3774,38.0152]]],[[[-75.6765,37.4551],[-75.6604,37.4432],[-75.7192,37.3683],[-75.6765,37.4551]]],[[[-75.6744,37.4858],[-75.5998,37.5751],[-75.6706,37.4771],[-75.6744,37.4858]]],[[[-76.0331,37.9547],[-76.0172,37.9288],[-76.0264,37.9135],[-76.0331,37.9547]]],[[[-75.9938,37.9541],[-75.9957,37.9451],[-76.007,37.9543],[-75.9938,37.9541]]],[[[-76.0441,37.9544],[-76.0368,37.9507],[-76.0436,37.9492],[-76.0441,37.9544]]],[[[-75.2433,38.0247],[-75.326,37.8923],[-75.3785,37.8558],[-75.3929,37.8647],[-75.2433,38.0247]]],[[[-75.9038,37.1292],[-75.9054,37.2344],[-75.874,37.2904],[-75.8108,37.2002],[-75.9038,37.1292]]]]}},{"type":"Feature","properties":{"id":"US-DC","name":"Washington","country":"United States of America","iso":"USA"},"geometry":{"type":"Polygon","coordinates":[[[-77.0229,38.8028],[-77.1198,38.9341],[-77.0419,38.9961],[-76.9093,38.893],[-77.0229,38.8028]]]}},{"type":"Feature","properties":{"id":"US-MD","name":"Maryland","country":"United States of America","iso":"USA"},"geometry":{"type":"MultiPolygon","coordinates":[[[[-75.3774,38.0152],[-75.875,37.9511],[-75.743,38.1108],[-75.9405,38.1354],[-75.8187,38.2337],[-75.9066,38.271],[-75.8433,38.4044],[-75.9627,38.248],[-75.9905,38.362],[-76.0379,38.2325],[-76.319,38.4739],[-76.172,38.5662],[-76.2774,38.6247],[-76.0536,38.568],[-75.9702,38.6066],[-76.288,38.7755],[-76.3413,38.6732],[-76.3047,38.8227],[-76.1731,38.7566],[-76.1061,38.878],[-76.2472,38.9512],[-76.3747,38.8416],[-76.3153,39.0294],[-76.1976,38.9793],[-76.0651,39.1461],[-76.2426,39.0333],[-76.2726,39.168],[-76.175,39.3162],[-75.8392,39.3715],[-76.0343,39.3929],[-75.8392,39.4608],[-75.8317,39.5844],[-76.0007,39.4528],[-75.9347,39.6042],[-76.083,39.5578],[-76.0675,39.4578],[-76.2097,39.3647],[-76.2325,39.4745],[-76.2842,39.3106],[-76.3115,39.4028],[-76.4015,39.3925],[-76.3326,39.351],[-76.4308,39.3181],[-76.4015,39.256],[-76.4835,39.3106],[-76.3969,39.238],[-76.4492,39.195],[-76.5708,39.2736],[-76.6232,39.2597],[-76.3942,39.0246],[-76.5692,39.0664],[-76.4524,38.9439],[-76.5686,38.9525],[-76.4931,38.8989],[-76.512,38.5277],[-76.3928,38.3536],[-76.6365,38.4742],[-76.6815,38.6794],[-76.6736,38.4861],[-76.3734,38.2989],[-76.3239,38.0438],[-76.4561,38.207],[-76.5172,38.1318],[-76.8042,38.2536],[-76.8276,38.3629],[-76.8807,38.3989],[-76.8392,38.2572],[-76.9222,38.2916],[-77.0316,38.4814],[-77.2553,38.3935],[-77.2275,38.5569],[-76.9093,38.893],[-77.4451,39.0846],[-77.4667,39.2438],[-77.7513,39.351],[-77.8469,39.6117],[-78.1844,39.7043],[-78.5773,39.5291],[-78.7747,39.6378],[-78.9578,39.4542],[-79.1027,39.4673],[-79.4858,39.2069],[-79.4774,39.7218],[-75.7886,39.7213],[-75.6937,38.4604],[-75.0829,38.4475],[-75.3774,38.0152]]],[[[-75.0577,38.4534],[-75.0511,38.3878],[-75.0788,38.3367],[-75.0577,38.4534]]],[[[-75.9813,37.9928],[-76.0514,37.9941],[-76.0174,38.0387],[-75.9813,37.9928]]],[[[-76.0486,38.2004],[-76.0836,38.1607],[-76.079,38.1828],[-76.0486,38.2004]]],[[[-75.263,38.0226],[-75.1998,38.1038],[-75.1793,38.1682],[-75.0924,38.3026],[-75.1897,38.0898],[-75.263,38.0226]]]]}},{"type":"Feature","properties":{"id":"US-NJ","name":"New Jersey","country":"United States of America","iso":"USA"},"geometry":{"type":"MultiPolygon","coordinates":[[[[-75.5413,39.5089],[-75.4402,39.777],[-74.7286,40.1632],[-75.1957,40.6191],[-75.1887,40.7585],[-75.0576,40.8723],[-75.1395,40.9822],[-74.8447,41.273],[-74.699,41.3563],[-73.9071,40.9908],[-74.0319,40.7142],[-74.2827,40.4973],[-73.9792,40.4493],[-74.093,39.7763],[-74.0513,40.0354],[-74.0607,40.0622],[-74.2974,39.5086],[-74.4072,39.557],[-74.4687,39.3994],[-74.4134,39.3571],[-74.6605,39.2895],[-74.5506,39.2827],[-74.8033,38.9876],[-74.9547,38.9264],[-74.9063,39.1796],[-75.1465,39.1871],[-75.5413,39.5089]]],[[[-74.4481,39.4199],[-74.3021,39.4647],[-74.3934,39.3891],[-74.4481,39.4199]]],[[[-74.2401,39.5754],[-74.0981,39.7557],[-74.2564,39.5222],[-74.2401,39.5754]]]]}},{"type":"Feature","properties":{"id":"US-MA","name":"Massachusetts","country":"United States of America","iso":"USA"},"geometry":{"type":"MultiPolygon","coordinates":[[[[-71.194,41.6769],[-71.1107,41.7971],[-71.2369,41.7096],[-71.3238,41.7778],[-71.3871,42.0158],[-73.5072,42.079],[-73.2655,42.7456],[-71.3063,42.7009],[-70.9164,42.8868],[-70.8143,42.8773],[-70.8638,42.8262],[-70.7571,42.6572],[-70.597,42.6345],[-70.878,42.5375],[-71.0384,42.3079],[-70.7418,42.2357],[-70.5908,42.0173],[-70.7148,42.0027],[-70.545,41.9406],[-70.4392,41.7561],[-70.2747,41.7152],[-70.0001,41.8163],[-69.9867,41.9212],[-70.0687,41.8933],[-70.0999,42.0374],[-70.2158,42.0846],[-70.0511,42.0398],[-69.9247,41.8381],[-69.9389,41.6742],[-70.4181,41.64],[-70.6587,41.5213],[-70.6306,41.7401],[-71.0402,41.5071],[-71.194,41.6769]]],[[[-70.0819,41.2925],[-70.0289,41.3861],[-69.9578,41.2757],[-69.9671,41.2495],[-70.2781,41.3079],[-70.0819,41.2925]]],[[[-70.4655,41.3603],[-70.4557,41.4296],[-70.4467,41.3674],[-70.4655,41.3603]]],[[[-70.6051,41.474],[-70.5074,41.3626],[-70.8462,41.3467],[-70.6051,41.474]]],[[[-69.981,41.6277],[-69.9594,41.6326],[-70.0215,41.5507],[-69.981,41.6277]]],[[[-70.8231,41.2508],[-70.814,41.2632],[-70.8018,41.2481],[-70.8231,41.2508]]],[[[-70.926,41.4289],[-70.8486,41.4343],[-70.9485,41.4141],[-70.926,41.4289]]],[[[-70.8399,41.4505],[-70.6792,41.5104],[-70.7908,41.4492],[-70.8399,41.4505]]]]}},{"type":"Feature","properties":{"id":"US-OR","name":"Oregon","country":"United States of America","iso":"USA"},"geometry":{"type":"MultiPolygon","coordinates":[[[[-124.5668,42.834],[-124.4013,43.3101],[-124.2329,43.4241],[-124.2129,43.3747],[-124.14,43.3753],[-124.2087,43.4522],[-124.3352,43.3653],[-124.2098,43.6566],[-124.0702,43.7117],[-124.2029,43.6808],[-124.1141,44.3074],[-124.0179,44.4098],[-124.0844,44.4981],[-124.0048,44.6163],[-124.078,44.6749],[-124.0018,45.3445],[-123.8711,45.6979],[-123.9379,45.6606],[-123.9811,45.7603],[-123.9233,46.014],[-124.0173,46.2354],[-123.7987,46.1024],[-123.8654,46.1865],[-123.5193,46.2353],[-123.3855,46.1462],[-122.9667,46.1357],[-122.8065,45.9781],[-122.7216,45.6489],[-122.2611,45.5663],[-121.7926,45.7214],[-120.9001,45.6418],[-119.0024,45.9995],[-116.8788,46.0015],[-116.4559,45.6219],[-116.8408,44.9012],[-117.2038,44.4825],[-117.1951,44.2977],[-116.892,44.1767],[-117.0314,43.8287],[-117.0166,41.9995],[-124.2145,41.9995],[-124.4125,42.2489],[-124.3999,42.6157],[-124.5668,42.834]]],[[[-123.4684,46.225],[-123.4443,46.2359],[-123.4408,46.2132],[-123.4684,46.225]]]]}},{"type":"Feature","properties":{"id":"US-HI","name":"Hawaii","country":"United States of America","iso":"USA"},"geometry":{"type":"MultiPolygon","coordinates":[[[[-155.168,19.9468],[-154.8141,19.5066],[-154.8747,19.4129],[-155.5028,19.1377],[-155.6748,18.9061],[-155.8781,19.0291],[-155.8874,19.3596],[-156.0602,19.7312],[-155.8355,19.9757],[-155.8805,20.252],[-155.168,19.9468]]],[[[-156.6088,20.591],[-156.5446,20.5132],[-156.7006,20.5254],[-156.6088,20.591]]],[[[-156.8484,20.8768],[-156.8313,20.7638],[-156.9623,20.7324],[-157.0631,20.8904],[-156.8484,20.8768]]],[[[-156.0017,20.8004],[-156.0484,20.6509],[-156.4077,20.5872],[-156.4643,20.7814],[-156.696,20.9158],[-156.5979,21.0327],[-156.4817,20.9044],[-156.2819,20.9503],[-156.0017,20.8004]]],[[[-156.749,21.171],[-156.8696,21.0534],[-157.3039,21.1096],[-157.2598,21.2219],[-156.749,21.171]]],[[[-157.9697,21.7091],[-157.7041,21.2595],[-157.947,21.3027],[-157.9609,21.3888],[-158.0943,21.2936],[-158.2789,21.5753],[-157.9697,21.7091]]],[[[-160.1138,22.0003],[-160.0722,21.9108],[-160.2113,21.7802],[-160.2455,21.8508],[-160.1138,22.0003]]],[[[-159.3013,22.151],[-159.4373,21.8688],[-159.7872,22.0193],[-159.5585,22.233],[-159.3013,22.151]]],[[[-161.9409,23.042],[-161.9448,23.0462],[-161.9404,23.0456],[-161.9409,23.042]]],[[[-164.7043,23.5793],[-164.6991,23.5705],[-164.7085,23.5745],[-164.7043,23.5793]]],[[[-167.9956,25.0117],[-168.0028,25.0148],[-167.9999,25.0164],[-167.9956,25.0117]]],[[[-171.7407,25.769],[-171.7294,25.7519],[-171.7391,25.7563],[-171.7407,25.769]]],[[[-173.9656,26.0586],[-173.9592,26.0596],[-173.9599,26.0553],[-173.9656,26.0586]]],[[[-178.298,28.391],[-178.2879,28.393],[-178.3044,28.3879],[-178.298,28.391]]]]}},{"type":"Feature","properties":{"id":"US-UT","name":"Utah","country":"United States of America","iso":"USA"},"geometry":{"type":"Polygon","coordinates":[[[-111.0502,41.9998],[-111.0499,40.9998],[-109.0463,40.9998],[-109.0466,36.9998],[-114.0402,37.0031],[-114.0425,42.0001],[-111.0502,41.9998]]]}},{"type":"Feature","properties":{"id":"US-NV","name":"Nevada","country":"United States of America","iso":"USA"},"geometry":{"type":"Polygon","coordinates":[[[-114.0425,42.0001],[-114.042,36.2198],[-114.1587,36.0297],[-114.3656,36.1472],[-114.7212,36.0927],[-114.5719,35.2126],[-114.6282,35.0036],[-118.1262,37.6913],[-120.0,38.9992],[-120.0008,41.9995],[-114.0425,42.0001]]]}},{"type":"Feature","properties":{"id":"US-CO","name":"Colorado","country":"United States of America","iso":"USA"},"geometry":{"type":"Polygon","coordinates":[[[-109.0463,40.9998],[-102.0518,40.9996],[-102.0396,36.9998],[-109.0466,36.9998],[-109.0463,40.9998]]]}},{"type":"Feature","properties":{"id":"US-NE","name":"Nebraska","country":"United States of America","iso":"USA"},"geometry":{"type":"Polygon","coordinates":[[[-104.0537,40.9998],[-104.0531,43.0004],[-98.4851,43.0002],[-97.9799,42.7823],[-97.8388,42.8715],[-97.2758,42.8843],[-96.3974,42.4967],[-96.3422,42.1814],[-96.0642,41.796],[-96.0821,41.5498],[-95.9877,41.534],[-95.958,41.3385],[-95.8698,41.3088],[-95.8693,40.7289],[-95.6499,40.311],[-95.4782,40.2492],[-95.4196,40.045],[-95.3173,40.0001],[-102.0513,40.0001],[-102.0518,40.9996],[-104.0537,40.9998]]]}},{"type":"Feature","properties":{"id":"US-OK","name":"Oklahoma","country":"United States of America","iso":"USA"},"geometry":{"type":"Polygon","coordinates":[[[-103.0002,36.5002],[-103.0008,36.9998],[-94.618,36.9998],[-94.4391,35.3862],[-94.4841,33.6474],[-95.2203,33.9629],[-95.3571,33.8682],[-95.5981,33.9521],[-95.7833,33.8554],[-95.9379,33.8956],[-96.3288,33.7019],[-96.6008,33.9049],[-96.7484,33.8489],[-96.9327,33.9573],[-97.1441,33.7251],[-97.2118,33.9101],[-97.4364,33.827],[-97.6406,33.9945],[-97.9267,33.8731],[-98.1065,34.1497],[-98.4907,34.0752],[-98.586,34.1571],[-99.1759,34.2206],[-99.3624,34.4623],[-99.4165,34.3804],[-99.6808,34.3947],[-99.9993,34.5755],[-100.0024,36.4999],[-103.0002,36.5002]]]}},{"type":"Feature","properties":{"id":"US-MO","name":"Missouri","country":"United States of America","iso":"USA"},"geometry":{"type":"Polygon","coordinates":[[[-95.6336,40.3092],[-95.7676,40.6005],[-91.7307,40.6188],[-91.4419,40.3795],[-91.5189,40.1749],[-91.3749,39.7357],[-90.774,39.2791],[-90.6575,38.921],[-90.4283,38.9674],[-90.1435,38.8568],[-90.3675,38.2387],[-89.5233,37.6789],[-89.4414,37.3983],[-89.5233,37.268],[-89.3773,37.0473],[-89.2751,37.0004],[-89.2601,37.0831],[-89.1237,36.9796],[-89.2054,36.6076],[-89.3701,36.6331],[-89.4789,36.4524],[-89.5697,36.5564],[-89.5308,36.3835],[-89.6284,36.3415],[-89.5573,36.2747],[-89.6946,36.247],[-89.6139,36.1417],[-89.7238,36.0005],[-90.3733,35.9862],[-90.0675,36.2874],[-90.1622,36.4998],[-94.6183,36.4998],[-94.6125,39.1528],[-94.8296,39.2173],[-95.1105,39.5503],[-94.8749,39.7421],[-94.9482,39.9014],[-95.0912,39.8607],[-95.4082,40.0336],[-95.4674,40.2381],[-95.6336,40.3092]]]}},{"type":"Feature","properties":{"id":"US-IL","name":"Illinois","country":"United States of America","iso":"USA"},"geometry":{"type":"Polygon","coordinates":[[[-90.5853,38.8781],[-90.774,39.2791],[-91.3749,39.7357],[-91.5189,40.1749],[-91.3736,40.4031],[-91.4009,40.5813],[-91.153,40.6725],[-90.949,40.9822],[-91.099,41.236],[-91.031,41.4136],[-90.4409,41.5434],[-90.1886,41.8348],[-90.1697,42.1165],[-90.6413,42.5118],[-87.0188,42.4962],[-87.2077,41.7597],[-87.521,41.7597],[-87.5327,39.3616],[-87.6668,39.1183],[-87.5112,38.7634],[-87.6532,38.4971],[-87.9919,38.2328],[-87.934,38.1599],[-88.0299,38.0979],[-87.9678,38.0836],[-88.0454,38.0517],[-88.0382,37.9056],[-88.1119,37.8986],[-88.0499,37.7736],[-88.1633,37.64],[-88.091,37.4913],[-88.4886,37.3847],[-88.4545,37.0961],[-88.9555,37.2278],[-89.1787,37.0623],[-89.1237,36.9796],[-89.2601,37.0831],[-89.2751,37.0004],[-89.3773,37.0473],[-89.5233,37.268],[-89.4414,37.3983],[-89.5233,37.6789],[-90.3675,38.2387],[-90.1435,38.8568],[-90.4283,38.9674],[-90.5853,38.8781]]]}},{"type":"Feature","properties":{"id":"US-KY","name":"Kentucky","country":"United States of America","iso":"USA"},"geometry":{"type":"MultiPolygon","coordinates":[[[[-89.2533,36.5691],[-89.1329,36.7609],[-89.1787,37.0623],[-89.0783,37.1855],[-88.907,37.2202],[-88.4843,37.0725],[-88.4886,37.3847],[-88.091,37.4913],[-88.1567,37.6639],[-87.8996,37.8297],[-87.9265,37.9233],[-87.6867,37.9069],[-87.657,37.8252],[-87.5986,37.9764],[-87.1181,37.7887],[-86.8188,37.9952],[-86.6244,37.8538],[-86.4618,38.1373],[-86.3328,38.1471],[-86.3829,38.1946],[-86.0513,37.9696],[-85.931,38.029],[-85.8294,38.2772],[-85.6651,38.3095],[-85.4148,38.5534],[-85.4547,38.7264],[-85.186,38.6937],[-84.8062,38.795],[-84.8731,39.0617],[-84.73,39.1462],[-84.4442,39.1018],[-84.2176,38.8235],[-83.8659,38.7622],[-83.7143,38.6385],[-83.5343,38.7074],[-83.1515,38.6189],[-82.8863,38.7448],[-82.8266,38.5865],[-82.5894,38.4193],[-82.6368,38.1616],[-82.2965,37.6884],[-81.9652,37.5387],[-82.6815,37.1371],[-83.1285,36.7533],[-83.7303,36.5858],[-88.0671,36.6897],[-88.0427,36.4986],[-89.4245,36.499],[-89.3588,36.638],[-89.2533,36.5691]]],[[[-89.5027,36.5544],[-89.5599,36.5002],[-89.5697,36.5564],[-89.5027,36.5544]]]]}},{"type":"Feature","properties":{"id":"US-AR","name":"Arkansas","country":"United States of America","iso":"USA"},"geometry":{"type":"Polygon","coordinates":[[[-90.3042,35.0001],[-90.2718,34.9231],[-90.568,34.7199],[-90.594,34.4251],[-90.7594,34.3807],[-90.9559,34.1571],[-90.8801,34.0609],[-91.093,33.9895],[-91.0454,33.8145],[-91.2259,33.6899],[-91.0931,33.1675],[-91.1665,33.0143],[-94.0413,33.0109],[-94.0473,33.5542],[-94.3874,33.5618],[-94.4841,33.6474],[-94.4391,35.3862],[-94.6183,36.4998],[-90.1622,36.4998],[-90.0675,36.2874],[-90.3794,35.9877],[-89.7238,36.0005],[-89.6673,35.9152],[-89.9519,35.723],[-89.9179,35.548],[-90.1153,35.3696],[-90.0853,35.1483],[-90.3042,35.0001]]]}},{"type":"Feature","properties":{"id":"US-TN","name":"Tennessee","country":"United States of America","iso":"USA"},"geometry":{"type":"Polygon","coordinates":[[[-89.674,35.8963],[-89.7157,36.0347],[-89.6139,36.1417],[-89.6946,36.247],[-89.5612,36.2637],[-89.6284,36.3415],[-89.5308,36.3835],[-89.5599,36.5002],[-88.0427,36.4986],[-88.0721,36.6894],[-81.6589,36.6095],[-81.7164,36.3436],[-81.8924,36.3167],[-82.0779,36.1037],[-82.2132,36.1592],[-82.5596,35.9618],[-82.6298,36.0574],[-82.9075,35.9459],[-82.9906,35.7837],[-83.8887,35.5123],[-84.0784,35.2683],[-84.2906,35.2299],[-84.3246,34.9871],[-90.3042,35.0001],[-90.0853,35.1483],[-90.1153,35.3696],[-89.9179,35.548],[-89.9519,35.723],[-89.674,35.8963]]]}},{"type":"Feature","properties":{"id":"US-IN","name":"Indiana","country":"United States of America","iso":"USA"},"geometry":{"type":"Polygon","coordinates":[[[-84.8061,41.7583],[-84.8775,38.9197],[-84.784,38.8929],[-84.8062,38.795],[-85.186,38.6937],[-85.4547,38.7264],[-85.4148,38.5534],[-85.6651,38.3095],[-85.8294,38.2772],[-85.931,38.029],[-86.0513,37.9696],[-86.3829,38.1946],[-86.3328,38.1471],[-86.4618,38.1373],[-86.6244,37.8538],[-86.8188,37.9952],[-87.1181,37.7887],[-87.5986,37.9764],[-87.6271,37.8345],[-87.9091,37.9316],[-87.9508,37.7819],[-88.0949,37.8182],[-87.9678,38.0836],[-88.0299,38.0979],[-87.934,38.1599],[-87.9919,38.2328],[-87.6532,38.4971],[-87.5112,38.7634],[-87.6668,39.1183],[-87.5327,39.3616],[-87.521,41.7597],[-84.8061,41.7583]]]}}]}