{"type":"FeatureCollection","features":[{"type":"Feature","properties":{"id":"DE-RP","name":"Rhineland-Palatinate","country":"Germany","iso":"DEU"},"geometry":{"type":"Polygon","coordinates":[[[6.1012,50.0634],[6.1468,50.214],[6.3951,50.382],[6.795,50.3556],[6.7601,50.4707],[7.5995,50.7334],[7.8597,50.9225],[8.1638,50.5858],[8.0045,50.5207],[7.9734,50.4003],[8.1205,50.2689],[7.7714,50.0535],[7.8782,49.9729],[8.213,50.0444],[8.3354,49.9596],[8.4766,49.7675],[8.3606,49.6645],[8.5046,49.4311],[8.4799,49.297],[8.2302,48.9655],[7.635,49.0378],[7.2947,49.2052],[7.3906,49.3607],[7.2523,49.431],[7.2706,49.5778],[6.9421,49.6279],[6.3488,49.5253],[6.5026,49.7957],[6.2227,49.8871],[6.1012,50.0634]]]}},{"type":"Feature","properties":{"id":"DE-NI","name":"Lower Saxony","country":"Germany","iso":"DEU"},"geometry":{"type":"MultiPolygon","coordinates":[[[[7.0185,52.626],[7.1836,52.9661],[7.1946,53.245],[7.3665,53.3028],[7.0383,53.3486],[7.1009,53.5979],[7.9514,53.7219],[8.168,53.5532],[8.0862,53.4561],[8.2053,53.4107],[8.3151,53.4749],[8.2312,53.5252],[8.2707,53.6129],[8.5521,53.5436],[8.49,53.4864],[8.5044,53.3581],[8.5129,53.4965],[8.6427,53.5319],[8.4861,53.7004],[8.6519,53.8925],[9.2747,53.8651],[9.8572,53.4329],[10.7097,53.3683],[11.0894,53.1442],[11.5813,53.0429],[11.4087,52.9052],[10.7586,52.8351],[10.9768,52.6163],[10.9391,52.4621],[11.073,52.3722],[10.9993,52.3403],[11.0851,52.2307],[10.963,52.0598],[10.5701,52.0068],[10.6455,51.9571],[10.5778,51.8052],[10.6976,51.6374],[10.65,51.5625],[10.3749,51.5857],[10.1497,51.4318],[9.7964,51.4084],[9.722,51.2905],[9.5347,51.3666],[9.6362,51.4037],[9.6544,51.6082],[9.3731,51.6473],[9.4612,51.8654],[9.322,51.8563],[9.1429,52.129],[8.9965,52.1341],[9.0727,52.2392],[8.9951,52.3225],[9.1316,52.4767],[8.8267,52.3888],[8.7111,52.3986],[8.6428,52.5241],[8.3014,52.4511],[8.4919,52.1762],[7.9698,52.0385],[7.8916,52.0898],[8.0173,52.17],[7.9006,52.2049],[7.9728,52.3146],[7.6806,52.462],[7.0531,52.2379],[6.9733,52.4514],[6.6951,52.4756],[6.7018,52.6191],[7.0185,52.626]],[[8.9899,53.0936],[8.4961,53.224],[8.7049,53.0496],[8.9899,53.0936]]],[[[6.7847,53.6201],[6.7565,53.5629],[6.6595,53.5991],[6.7847,53.6201]]],[[[6.8738,53.6728],[7.047,53.6942],[7.0855,53.687],[6.8738,53.6728]]],[[[7.1736,53.7014],[7.2329,53.7294],[7.3467,53.7232],[7.1736,53.7014]]],[[[7.4212,53.7211],[7.4035,53.7367],[7.4356,53.728],[7.4212,53.7211]]],[[[8.1509,53.7143],[8.1524,53.7392],[8.196,53.728],[8.1509,53.7143]]],[[[7.473,53.7319],[7.6066,53.7626],[7.6272,53.7509],[7.473,53.7319]]],[[[7.7482,53.7609],[7.6863,53.781],[7.8128,53.7831],[7.7482,53.7609]]],[[[7.9556,53.7829],[7.8545,53.7846],[7.8976,53.7963],[7.9556,53.7829]]]]}},{"type":"Feature","properties":{"id":"DE-NW","name":"North Rhine-Westphalia","country":"Germany","iso":"DEU"},"geometry":{"type":"Polygon","coordinates":[[[6.673,52.0501],[7.5616,52.3718],[7.6091,52.4756],[7.9704,52.3175],[7.9006,52.2049],[8.0173,52.17],[7.8916,52.0898],[7.9739,52.0385],[8.4919,52.1762],[8.3014,52.4511],[8.6428,52.5241],[8.7111,52.3986],[8.8267,52.3888],[9.0909,52.4974],[8.9965,52.1341],[9.1429,52.129],[9.322,51.8563],[9.4612,51.8654],[9.3724,51.6563],[9.4401,51.649],[9.2124,51.457],[9.0154,51.5092],[8.9009,51.4762],[8.9351,51.3913],[8.654,51.3441],[8.5756,51.2702],[8.7228,51.2687],[8.7063,51.1063],[8.5247,51.0933],[8.4662,50.9167],[8.1972,50.8271],[8.1345,50.684],[7.7886,50.9303],[7.6941,50.7757],[6.7601,50.4707],[6.7977,50.3567],[6.3734,50.3231],[6.3369,50.481],[6.1708,50.518],[6.2491,50.6144],[6.0115,50.7085],[5.9688,50.7946],[6.0637,50.9075],[5.8582,51.0193],[6.1473,51.1523],[6.0566,51.2117],[6.2078,51.3877],[5.928,51.8067],[6.1561,51.8421],[6.127,51.8967],[6.345,51.8211],[6.7438,51.9083],[6.8092,51.9795],[6.673,52.0501]]]}},{"type":"Feature","properties":{"id":"NG-LA","name":"Lagos","country":"Nigeria","iso":"NGA"},"geometry":{"type":"Polygon","coordinates":[[[2.7038,6.3684],[2.7119,6.474],[3.1688,6.5245],[3.2767,6.7047],[4.0918,6.6744],[4.0592,6.5673],[4.2096,6.5769],[4.1548,6.4786],[4.3463,6.4007],[3.4436,6.4103],[3.3849,6.4445],[3.8579,6.6022],[3.7737,6.6224],[3.5283,6.5278],[3.4812,6.6022],[3.4024,6.5522],[3.3698,6.45],[3.3845,6.3977],[2.7038,6.3684]]]}},{"type":"Feature","properties":{"id":"NL-NB","name":"North Brabant","country":"Netherlands","iso":"NLD"},"geometry":{"type":"Polygon","coordinates":[[[4.7621,51.4134],[4.7787,51.4954],[4.6301,51.4182],[4.5126,51.4774],[4.3771,51.4429],[4.4112,51.3567],[4.2811,51.3689],[4.1861,51.6168],[4.909,51.8299],[5.1349,51.7348],[5.5008,51.835],[5.8827,51.7533],[6.0495,51.5745],[5.8378,51.567],[5.9344,51.3849],[5.5514,51.2168],[5.4932,51.2865],[5.2154,51.2587],[5.0275,51.4768],[4.9319,51.3956],[4.7621,51.4134]]]}},{"type":"Feature","properties":{"id":"CA-BC","name":"British Columbia","country":"Canada","iso":"CAN"},"geometry":{"type":"MultiPolygon","coordinates":[[[[-114.0375,49.0343],[-122.753,48.9925],[-122.9066,49.0883],[-123.0905,48.9925],[-123.143,49.0609],[-123.0407,49.151],[-123.212,49.13],[-123.1376,49.1957],[-123.2469,49.2746],[-122.9608,49.2819],[-122.8557,49.4418],[-122.9381,49.3258],[-123.27,49.3354],[-123.171,49.7053],[-123.5027,49.5054],[-123.5336,49.3885],[-123.8856,49.4773],[-124.0611,49.6308],[-123.9393,49.7436],[-123.7771,49.5053],[-123.7601,49.6097],[-123.5335,49.7053],[-123.7945,49.644],[-123.9276,49.7636],[-123.8836,49.9011],[-123.9536,49.9897],[-123.7545,50.0937],[-123.8284,50.1584],[-123.9935,50.2198],[-123.8079,50.1032],[-123.9932,50.0108],[-123.9382,49.8288],[-124.0375,49.925],[-124.0816,49.8083],[-124.283,49.7466],[-124.5133,49.7975],[-124.8289,50.0548],[-124.6849,49.9865],[-124.6029,50.2403],[-124.7134,50.3314],[-124.4112,50.4457],[-124.359,50.5093],[-124.8301,50.3176],[-125.007,50.4321],[-125.0815,50.3247],[-125.0574,50.4773],[-124.8699,50.583],[-124.8236,50.7345],[-124.9105,50.7936],[-124.8138,50.9272],[-124.9865,50.8083],[-124.9082,50.6274],[-125.1783,50.4191],[-125.3567,50.5431],[-125.5771,50.4707],[-125.4546,50.7204],[-125.6702,50.4394],[-125.7872,50.5316],[-126.0077,50.4715],[-126.2806,50.5194],[-125.9386,50.6301],[-126.269,50.6303],[-125.7165,50.6785],[-125.6202,50.7577],[-125.6454,50.8549],[-125.5073,50.9392],[-125.637,51.1037],[-125.5421,50.9392],[-125.6793,50.8703],[-125.6477,50.7824],[-125.9213,50.6849],[-126.2123,50.6751],[-126.0312,50.7894],[-126.1789,50.781],[-126.1838,50.8679],[-126.5474,50.8374],[-126.4989,50.9223],[-126.2233,50.905],[-126.1731,50.9388],[-126.4595,50.9517],[-126.5147,51.0764],[-126.5351,50.9417],[-126.6742,50.8782],[-127.1658,50.9392],[-126.922,50.8723],[-127.0218,50.8219],[-127.429,50.9431],[-127.5308,51.0037],[-127.4811,51.1099],[-127.6619,51.0975],[-127.7895,51.2334],[-127.221,51.2893],[-127.1385,51.3228],[-127.1173,51.3985],[-127.2819,51.3023],[-127.7784,51.3649],[-127.5519,51.4709],[-127.468,51.6284],[-126.6772,51.6457],[-126.6034,51.7138],[-126.6661,51.8026],[-126.6993,51.6654],[-127.4232,51.6719],[-127.3501,51.8702],[-127.4927,51.6987],[-127.6456,51.7001],[-127.4674,51.6623],[-127.7139,51.4577],[-127.7616,51.4941],[-127.6593,51.5146],[-127.8027,51.5377],[-127.8826,51.8655],[-127.6661,51.9596],[-127.5826,52.1278],[-127.468,52.1412],[-127.5765,52.0937],[-127.6244,52.0285],[-127.1483,52.319],[-126.9976,52.2975],[-126.6723,51.9875],[-126.9385,52.3059],[-126.7338,52.3712],[-127.1897,52.3879],[-127.2277,52.5229],[-126.9255,52.7343],[-127.0764,52.8851],[-126.9869,52.7109],[-127.6166,52.2985],[-127.7554,52.2818],[-127.7366,52.3544],[-127.8724,52.2195],[-127.8883,52.5151],[-127.9026,52.3853],[-128.0159,52.3467],[-128.0531,52.4852],[-127.8777,52.5841],[-128.0924,52.5133],[-128.2967,52.2756],[-128.3922,52.296],[-128.2262,52.4605],[-128.1322,52.8731],[-128.0288,52.9167],[-128.1383,52.9267],[-128.2482,52.8032],[-128.443,52.8277],[-128.5568,53.1287],[-128.481,53.1457],[-128.8491,53.2786],[-128.831,53.4883],[-128.9176,53.4587],[-128.9745,53.5566],[-128.7895,53.5703],[-128.4939,53.3441],[-128.3519,53.4815],[-128.127,53.4509],[-128.1042,53.3376],[-127.8715,53.2283],[-128.1111,53.4883],[-128.3741,53.5036],[-128.5294,53.4337],[-128.8077,53.6154],[-128.7751,53.7983],[-128.4737,53.8415],[-128.6939,53.8993],[-128.5983,54.0302],[-128.9329,53.7764],[-128.9062,53.8447],[-129.0092,53.8993],[-128.9732,53.7776],[-129.0638,53.8105],[-129.0333,53.7495],[-129.2283,53.6327],[-129.2898,53.3854],[-130.1047,53.9471],[-130.0501,54.1562],[-129.715,53.9538],[-129.9272,54.1873],[-129.637,54.1811],[-129.4753,54.2351],[-129.829,54.2421],[-130.1249,54.1609],[-130.1763,54.1952],[-130.2815,54.2144],[-130.1947,54.263],[-130.2494,54.4064],[-130.4825,54.3737],[-130.3797,54.461],[-130.4312,54.633],[-130.053,54.3374],[-129.9589,54.3221],[-130.0849,54.3921],[-129.9814,54.5154],[-130.1011,54.4263],[-130.3724,54.6643],[-130.2344,54.7114],[-130.0116,54.6199],[-129.8795,54.6206],[-130.2015,54.7285],[-130.0501,54.893],[-130.1737,54.8445],[-130.022,54.9739],[-129.6413,54.9896],[-130.001,55.0224],[-129.6392,55.4411],[-129.4757,55.4641],[-129.6347,55.4616],[-129.713,55.4208],[-129.8248,55.6192],[-129.7862,55.3568],[-130.1248,55.0053],[-130.1674,55.0854],[-129.9494,55.2932],[-130.1306,55.7363],[-129.9613,55.9208],[-130.0715,56.0841],[-130.404,56.1219],[-130.7603,56.3452],[-131.5604,56.5941],[-131.8256,56.5933],[-131.8716,56.7935],[-132.1074,56.8588],[-132.0319,57.0284],[-132.3412,57.0804],[-132.231,57.1968],[-133.415,58.3305],[-133.3922,58.4039],[-133.8311,58.718],[-134.2222,58.8427],[-134.6921,59.2352],[-134.9578,59.281],[-135.0958,59.4189],[-135.0185,59.5594],[-135.4651,59.7897],[-136.3503,59.5924],[-136.2447,59.5282],[-136.4676,59.4616],[-136.5695,59.1722],[-137.4869,58.9001],[-137.6114,59.2393],[-138.5992,59.7538],[-138.7049,59.8985],[-139.0602,60.0001],[-120.0,60.0001],[-120.001,53.8228],[-119.7325,53.6231],[-119.9265,53.6149],[-119.9049,53.5219],[-119.6416,53.3538],[-119.3933,53.3645],[-119.2634,53.1983],[-118.8502,53.1833],[-118.6243,52.887],[-118.4206,52.8403],[-118.2074,52.4821],[-118.2266,52.3703],[-117.992,52.4847],[-117.7363,52.3913],[-117.8218,52.2795],[-117.7537,52.2003],[-117.5908,52.1304],[-117.3189,52.182],[-116.9377,51.7199],[-116.6716,51.8059],[-116.2575,51.3144],[-115.6204,50.9702],[-115.5719,50.9003],[-115.6467,50.852],[-115.3347,50.7252],[-115.2206,50.5504],[-114.9997,50.5629],[-114.7751,50.3541],[-114.6611,50.0643],[-114.6248,49.7802],[-114.7439,49.5876],[-114.5763,49.5562],[-114.578,49.3945],[-114.0375,49.0343]]],[[[-128.0099,51.7237],[-127.8975,51.4298],[-128.0503,51.4599],[-128.1566,51.6279],[-128.0099,51.7237]]],[[[-128.1383,51.864],[-128.251,51.8759],[-128.1592,52.0348],[-127.9534,52.049],[-128.0176,51.7722],[-128.1352,51.7473],[-128.1383,51.864]]],[[[-130.9967,52.1117],[-131.0714,52.061],[-131.024,51.9466],[-131.1268,52.1116],[-130.9967,52.1117]]],[[[-128.123,52.1517],[-127.8777,52.1719],[-127.9615,52.0828],[-128.123,52.1517]]],[[[-128.2482,52.0217],[-128.2907,52.1247],[-128.1453,52.1936],[-128.1626,52.0732],[-128.2482,52.0217]]],[[[-128.2278,52.2128],[-128.3398,52.0793],[-128.5224,52.1576],[-128.4473,52.238],[-128.2278,52.2128]]],[[[-127.9077,52.2009],[-128.1732,52.2551],[-127.9853,52.3021],[-127.9077,52.2009]]],[[[-127.2408,52.4264],[-127.238,52.3129],[-127.5767,52.1862],[-127.7181,51.9882],[-127.9022,51.9682],[-127.751,52.2502],[-127.2408,52.4264]]],[[[-128.6182,52.4537],[-128.6232,52.3301],[-128.6796,52.2681],[-128.7638,52.4495],[-128.6182,52.4537]]],[[[-128.563,52.6114],[-128.4979,52.4363],[-128.8175,52.522],[-128.7001,52.522],[-128.732,52.5955],[-128.563,52.6114]]],[[[-131.5646,52.7274],[-131.6569,52.7216],[-131.6744,52.7069],[-131.469,52.7343],[-131.4527,52.6452],[-131.5925,52.666],[-131.602,52.5952],[-131.7024,52.7213],[-131.5646,52.7274]]],[[[-128.3104,52.4294],[-128.4664,52.3827],[-128.3913,52.7965],[-128.3186,52.6876],[-128.3104,52.4294]]],[[[-128.9301,52.6144],[-128.9813,52.4537],[-129.2761,52.7274],[-129.2751,52.8247],[-128.9301,52.6144]]],[[[-128.275,52.6025],[-128.323,52.7788],[-128.1732,52.8236],[-128.275,52.6025]]],[[[-128.5099,52.6539],[-128.536,52.7664],[-128.5021,52.872],[-128.5099,52.6539]]],[[[-129.5721,53.0197],[-129.6205,52.9582],[-129.6535,53.0222],[-129.5721,53.0197]]],[[[-129.6187,53.0563],[-129.5197,53.0266],[-129.6876,53.0639],[-129.6187,53.0563]]],[[[-129.694,53.1389],[-129.5889,53.0718],[-129.7429,53.1321],[-129.694,53.1389]]],[[[-129.3041,53.0359],[-129.3949,53.0004],[-129.5504,53.1662],[-129.4611,53.1867],[-129.3041,53.0359]]],[[[-131.0097,52.2271],[-131.175,52.1245],[-131.2772,52.2408],[-131.2797,52.1324],[-131.5584,52.3302],[-131.5116,52.4085],[-132.086,52.7343],[-131.9388,52.7731],[-132.086,52.8577],[-132.1338,52.7547],[-132.3423,52.9425],[-132.1139,53.0012],[-132.4888,53.0317],[-132.5658,53.1457],[-132.3731,53.1327],[-132.0655,53.1613],[-131.798,53.2556],[-131.5956,53.0419],[-132.004,53.0639],[-131.9221,52.9875],[-131.6262,52.9981],[-131.613,52.9267],[-131.8,52.8748],[-131.9221,52.9403],[-131.9836,52.8782],[-131.829,52.8032],[-131.6609,52.8057],[-131.8395,52.7138],[-131.7296,52.7007],[-131.6608,52.5424],[-131.469,52.5077],[-131.4076,52.3581],[-131.2484,52.4469],[-131.2545,52.3553],[-131.3597,52.3444],[-131.0097,52.2271]]],[[[-128.8038,52.7007],[-128.9273,52.6728],[-129.1212,52.8445],[-129.0168,52.8593],[-129.0707,52.8925],[-128.838,53.0359],[-128.8773,53.072],[-129.0155,53.1457],[-128.8646,53.0359],[-129.1,52.903],[-129.1837,52.9495],[-129.0781,53.3028],[-128.6347,53.1632],[-128.5387,53.0197],[-128.5946,52.6144],[-128.7554,52.6039],[-128.6484,52.9161],[-128.6645,52.9709],[-128.8038,52.7007]]],[[[-129.2935,53.1079],[-129.2757,53.331],[-129.1978,53.3217],[-129.1396,53.1048],[-129.2935,53.1079]]],[[[-128.9972,53.5439],[-128.94,53.3239],[-129.1482,53.3637],[-128.9972,53.5439]]],[[[-129.743,53.2353],[-129.7696,53.1594],[-129.9394,53.1689],[-130.3255,53.4],[-130.4139,53.4986],[-130.3381,53.5163],[-130.5271,53.5527],[-130.5153,53.6304],[-129.974,53.458],[-129.743,53.2353]]],[[[-129.1662,53.3854],[-129.16,53.627],[-128.8236,53.7081],[-128.8843,53.5762],[-128.9805,53.5847],[-129.0939,53.5089],[-129.1662,53.3854]]],[[[-130.4064,53.687],[-130.2609,53.7978],[-130.0917,53.5703],[-130.3319,53.624],[-130.4064,53.687]]],[[[-130.2528,53.8925],[-129.831,53.7354],[-129.5157,53.4883],[-129.6163,53.4991],[-129.6392,53.4815],[-129.3365,53.3606],[-129.3287,53.2634],[-129.4296,53.3356],[-129.585,53.2237],[-129.8968,53.4781],[-129.913,53.6113],[-130.0575,53.6079],[-129.8719,53.6392],[-130.0917,53.6461],[-130.2909,53.8378],[-130.2528,53.8925]]],[[[-130.3313,53.9676],[-130.4892,53.8993],[-130.6758,53.961],[-130.6222,53.8564],[-130.7155,53.8577],[-130.6739,53.9892],[-130.4216,54.1],[-130.2289,53.9538],[-130.4786,53.8439],[-130.3313,53.9676]]],[[[-132.1959,53.1594],[-132.7098,53.2618],[-132.5384,53.327],[-132.7576,53.3171],[-132.703,53.3785],[-132.4001,53.3303],[-132.9773,53.5566],[-132.8911,53.6197],[-133.1444,53.8969],[-133.0381,54.0439],[-133.0729,54.1668],[-132.5757,54.1184],[-132.6614,53.9409],[-132.4068,54.0994],[-132.161,54.0085],[-132.117,53.872],[-132.2406,53.777],[-132.6579,53.6907],[-132.3529,53.6728],[-132.4838,53.5771],[-132.1592,53.6999],[-132.1938,53.774],[-132.0785,53.8925],[-132.1822,54.0439],[-131.9164,54.0401],[-131.6608,54.1668],[-131.9333,53.6186],[-131.963,53.2829],[-132.2777,53.2147],[-132.1269,53.201],[-132.1959,53.1594]]],[[[-130.1559,54.1416],[-130.2528,54.1907],[-130.1625,54.161],[-130.1559,54.1416]]],[[[-130.7565,54.2145],[-130.6976,54.1149],[-130.8048,54.1737],[-130.7565,54.2145]]],[[[-130.4206,54.3319],[-130.3654,54.2425],[-130.4691,54.3039],[-130.4206,54.3319]]],[[[-130.2985,54.2536],[-130.305,54.3337],[-130.253,54.3113],[-130.2985,54.2536]]],[[[-130.6911,54.3671],[-130.756,54.3939],[-130.6876,54.3996],[-130.6911,54.3671]]],[[[-130.7428,54.6056],[-130.7769,54.5504],[-130.9691,54.462],[-130.9312,54.6227],[-130.7428,54.6056]]],[[[-130.5919,54.7422],[-130.4836,54.8104],[-130.4343,54.7695],[-130.4618,54.7121],[-130.5919,54.7422]]],[[[-130.2084,54.8111],[-130.24,54.7305],[-130.3777,54.6982],[-130.3404,54.7369],[-130.2084,54.8111]]],[[[-130.2698,54.8315],[-130.4616,54.8315],[-130.1674,55.0165],[-130.2698,54.8315]]],[[[-123.3053,48.6188],[-123.3029,48.597],[-123.3375,48.6484],[-123.3053,48.6188]]],[[[-123.369,48.7742],[-123.5311,48.7344],[-123.5956,48.9518],[-123.4311,48.8419],[-123.496,48.8455],[-123.369,48.7742]]],[[[-123.3945,48.8724],[-123.6973,49.1093],[-123.3171,48.8698],[-123.3945,48.8724]]],[[[-123.7213,49.1608],[-123.7767,49.1333],[-123.8698,49.1905],[-123.8339,49.2012],[-123.7213,49.1608]]],[[[-126.0065,49.2141],[-125.9689,49.1487],[-126.035,49.2018],[-126.0065,49.2141]]],[[[-126.2314,49.3786],[-126.0694,49.2555],[-126.2235,49.2771],[-126.2314,49.3786]]],[[[-123.35,49.4175],[-123.3759,49.3371],[-123.4294,49.3467],[-123.35,49.4175]]],[[[-124.3546,49.5224],[-124.1717,49.4547],[-124.3791,49.5073],[-124.3546,49.5224]]],[[[-123.4516,49.4452],[-123.4181,49.5309],[-123.3225,49.4861],[-123.3427,49.4429],[-123.4516,49.4452]]],[[[-124.6074,49.5309],[-124.6629,49.4943],[-124.7038,49.5212],[-124.6837,49.5493],[-124.6074,49.5309]]],[[[-124.836,49.5977],[-124.6908,49.4829],[-124.8254,49.5401],[-124.836,49.5977]]],[[[-124.0745,49.7414],[-124.2051,49.7053],[-124.0201,49.781],[-124.0745,49.7414]]],[[[-124.6644,49.7469],[-124.3479,49.7042],[-124.1232,49.4998],[-124.4388,49.6119],[-124.6644,49.7469]]],[[[-126.6587,49.7878],[-126.6794,49.5918],[-126.987,49.8151],[-126.7685,49.8835],[-126.6587,49.7878]]],[[[-127.286,50.0371],[-127.2723,49.978],[-127.3186,49.9996],[-127.286,50.0371]]],[[[-125.0055,50.0176],[-124.9957,50.2321],[-124.891,50.069],[-125.0055,50.0176]]],[[[-125.1988,50.0411],[-125.3237,50.1433],[-125.336,50.2745],[-125.1715,50.219],[-125.1988,50.0411]]],[[[-124.8323,50.1174],[-124.9171,50.3035],[-124.7538,50.1683],[-124.8323,50.1174]]],[[[-124.8026,50.2286],[-124.7251,50.3045],[-124.6507,50.2244],[-124.7258,50.1632],[-124.7233,50.2929],[-124.8026,50.2286]]],[[[-125.2125,50.3223],[-125.4042,50.3322],[-125.288,50.4374],[-125.048,50.2056],[-125.1422,50.1258],[-125.1361,50.2324],[-125.2125,50.3223]]],[[[-125.5469,50.4434],[-125.6358,50.3825],[-125.7834,50.3974],[-125.5469,50.4434]]],[[[-125.368,50.4611],[-125.3924,50.3674],[-125.5448,50.3778],[-125.478,50.4295],[-125.368,50.4611]]],[[[-125.7491,50.4218],[-125.8236,50.4088],[-125.9654,50.4382],[-125.8058,50.475],[-125.7491,50.4218]]],[[[-126.5869,50.5949],[-126.6149,50.5527],[-126.6709,50.5896],[-126.5869,50.5949]]],[[[-126.3676,50.583],[-126.2267,50.5693],[-126.6245,50.5346],[-126.3676,50.583]]],[[[-126.4713,50.6282],[-126.3635,50.6188],[-126.5585,50.6032],[-126.4713,50.6282]]],[[[-127.1075,50.6711],[-126.8331,50.6252],[-127.1504,50.64],[-127.1075,50.6711]]],[[[-126.6177,50.6723],[-126.2895,50.8286],[-126.1789,50.7508],[-126.2881,50.6546],[-126.6177,50.6723]]],[[[-126.5624,50.8021],[-126.9051,50.8293],[-126.641,50.8498],[-126.5624,50.8021]]],[[[-123.4168,48.6911],[-123.3025,48.4143],[-123.4373,48.4446],[-123.6539,48.3143],[-125.094,48.73],[-125.1852,48.801],[-124.847,49.0205],[-124.7794,49.152],[-124.8084,49.2466],[-124.9077,49.0064],[-125.2404,48.9555],[-125.3334,49.0418],[-125.4695,48.9177],[-125.6066,48.9619],[-125.8717,49.0902],[-125.6129,49.2064],[-125.7467,49.1481],[-125.7748,49.3701],[-125.8437,49.267],[-126.0281,49.2739],[-125.9509,49.3203],[-125.912,49.4384],[-126.0144,49.3223],[-126.0551,49.4453],[-126.2548,49.4505],[-126.2881,49.3627],[-126.4321,49.4726],[-126.4874,49.3837],[-126.5727,49.4143],[-126.5488,49.596],[-126.1075,49.6833],[-126.4532,49.6743],[-126.4674,49.7923],[-126.5731,49.7069],[-126.6497,49.898],[-126.8436,49.9735],[-126.8395,49.8882],[-126.9193,49.9735],[-126.9361,49.8666],[-127.1419,49.8666],[-127.2375,49.9618],[-127.0887,50.1107],[-127.0969,50.1509],[-127.2853,50.1509],[-127.3625,50.0325],[-127.4634,50.187],[-127.8981,50.1141],[-127.747,50.2432],[-127.9681,50.3422],[-127.9258,50.4621],[-127.5912,50.4857],[-127.4469,50.3769],[-127.5625,50.5211],[-127.419,50.6035],[-127.8777,50.6301],[-127.5926,50.5436],[-128.0602,50.4526],[-128.4172,50.7719],[-127.8825,50.8669],[-126.8642,50.5301],[-125.4767,50.339],[-125.1783,49.925],[-124.8821,49.7249],[-124.9762,49.668],[-124.7947,49.4726],[-123.9549,49.2292],[-123.7569,49.0421],[-123.8351,49.0002],[-123.5799,48.8216],[-123.6508,48.7531],[-123.5267,48.678],[-123.5355,48.5401],[-123.4168,48.6911]]],[[[-127.9154,50.9396],[-127.875,50.8904],[-127.983,50.9167],[-127.9154,50.9396]]],[[[-127.5579,51.0893],[-127.542,51.0522],[-127.6117,51.0751],[-127.5579,51.0893]]],[[[-131.6813,52.8421],[-131.7435,52.8113],[-131.8376,52.841],[-131.7594,52.8571],[-131.6813,52.8421]]],[[[-132.2296,52.9952],[-132.3031,52.9667],[-132.3826,53.0041],[-132.3647,53.0073],[-132.2296,52.9952]]],[[[-133.0614,54.2563],[-133.0005,54.1901],[-133.0818,54.2318],[-133.0614,54.2563]]],[[[-123.307,48.7646],[-123.2504,48.7661],[-123.1867,48.7364],[-123.307,48.7646]]],[[[-123.0438,48.7888],[-123.1853,48.7746],[-123.2235,48.8327],[-123.0438,48.7888]]],[[[-125.915,49.1763],[-125.797,49.227],[-125.8014,49.1439],[-125.915,49.1763]]],[[[-128.6159,50.7828],[-128.6037,50.8198],[-128.5726,50.7952],[-128.6159,50.7828]]],[[[-128.7044,50.8072],[-128.6622,50.825],[-128.655,50.8088],[-128.7044,50.8072]]],[[[-127.8344,50.8787],[-127.6882,50.9009],[-127.656,50.8378],[-127.8344,50.8787]]],[[[-128.487,51.9537],[-128.4324,51.9024],[-128.4788,51.9068],[-128.487,51.9537]]],[[[-129.4496,52.644],[-129.4001,52.6795],[-129.4024,52.6466],[-129.4496,52.644]]],[[[-129.3662,52.8145],[-129.312,52.8393],[-129.3289,52.7996],[-129.3662,52.8145]]],[[[-130.6165,53.5064],[-130.587,53.4662],[-130.6361,53.4984],[-130.6165,53.5064]]],[[[-130.4379,53.7569],[-130.5694,53.8367],[-130.42,53.7833],[-130.4379,53.7569]]],[[[-130.87,54.4348],[-130.79,54.4937],[-130.7296,54.4208],[-130.87,54.4348]]],[[[-131.0909,54.5822],[-131.0568,54.6257],[-131.05,54.606],[-131.0909,54.5822]]]]}},{"type":"Feature","properties":{"id":"CA-AB","name":"Alberta","country":"Canada","iso":"CAN"},"geometry":{"type":"Polygon","coordinates":[[[-109.9993,48.9926],[-114.0638,48.9925],[-114.1541,49.1482],[-114.3764,49.2046],[-114.578,49.3945],[-114.5763,49.5562],[-114.7439,49.5876],[-114.6248,49.7802],[-114.6611,50.0643],[-114.7751,50.3541],[-114.9997,50.5629],[-115.2206,50.5504],[-115.3347,50.7252],[-115.6467,50.852],[-115.5719,50.9003],[-115.6204,50.9702],[-116.2575,51.3144],[-116.6716,51.8059],[-116.9377,51.7199],[-117.3189,52.182],[-117.5908,52.1304],[-117.7537,52.2003],[-117.8218,52.2795],[-117.7363,52.3913],[-117.992,52.4847],[-118.2266,52.3703],[-118.2074,52.4821],[-118.4206,52.8403],[-118.6243,52.887],[-118.8502,53.1833],[-119.2634,53.1983],[-119.3933,53.3645],[-119.6416,53.3538],[-119.9049,53.5219],[-119.9265,53.6149],[-119.7325,53.6231],[-120.001,53.8228],[-120.0,60.0001],[-110.0,60.0001],[-109.9993,48.9926]]]}},{"type":"Feature","properties":{"id":"CA-ON","name":"Ontario","country":"Canada","iso":"CAN"},"geometry":{"type":"MultiPolygon","coordinates":[[[[-89.499,47.9951],[-89.9205,47.9875],[-90.1204,48.1154],[-90.7503,48.084],[-90.8738,48.2343],[-91.2764,48.0648],[-91.5748,48.0482],[-92.0705,48.3467],[-92.2816,48.3318],[-92.3719,48.2226],[-92.4906,48.4331],[-92.7041,48.4452],[-92.6486,48.5363],[-92.9556,48.6122],[-93.7568,48.5165],[-93.8749,48.6362],[-94.6889,48.7788],[-94.8391,49.3089],[-95.1612,49.3739],[-95.1538,52.8214],[-88.8912,56.8613],[-87.9796,56.4429],[-87.5892,56.0798],[-87.6186,56.0028],[-87.5008,56.0449],[-87.3653,55.9482],[-85.9043,55.662],[-85.1279,55.3498],[-85.389,55.1121],[-85.4173,54.9992],[-85.0539,55.2941],[-84.6131,55.2452],[-83.9291,55.3265],[-83.6115,55.2322],[-83.5669,55.1907],[-83.5883,55.1568],[-83.5611,55.1332],[-83.558,55.1847],[-83.5829,55.2325],[-83.7132,55.2766],[-82.9757,55.2391],[-82.8976,55.1741],[-82.9517,55.1127],[-82.2523,55.1179],[-82.2014,54.8339],[-82.4445,54.3654],[-82.383,54.1252],[-82.2426,54.065],[-82.126,53.8122],[-82.2192,53.6044],[-82.1144,53.289],[-82.2506,53.213],[-82.3012,52.9676],[-82.0419,52.8428],[-81.4787,52.3035],[-81.8202,52.2594],[-81.8828,52.1936],[-81.512,52.2393],[-80.9791,52.0018],[-80.5949,51.7114],[-80.4298,51.3572],[-81.0126,51.0354],[-80.3851,51.3414],[-79.986,51.2551],[-79.5208,50.9429],[-79.5129,47.5968],[-79.5803,47.4518],[-79.4313,47.087],[-78.7198,46.3471],[-77.6584,46.1839],[-76.9935,45.7902],[-76.8177,45.8859],[-76.6229,45.565],[-76.3435,45.4736],[-76.0488,45.5155],[-75.841,45.3872],[-75.2836,45.5767],[-74.6437,45.6561],[-74.3935,45.5727],[-74.478,45.3169],[-74.3462,45.2206],[-74.713,44.9993],[-75.2702,44.8638],[-75.8703,44.4086],[-76.1498,44.3045],[-76.8415,43.6255],[-78.7508,43.6171],[-79.1743,43.4645],[-79.032,43.0134],[-78.9091,42.9302],[-79.0194,42.8027],[-80.2466,42.3655],[-81.2767,42.2087],[-82.4249,41.6768],[-82.6669,41.6691],[-83.0684,41.8477],[-83.1595,42.0463],[-83.08,42.3051],[-82.5262,42.6199],[-82.1457,43.5764],[-82.5483,45.3346],[-83.6369,45.7739],[-83.4628,46.0078],[-83.6139,46.1156],[-83.9646,46.0632],[-84.0968,46.2248],[-84.1104,46.5265],[-84.5666,46.4612],[-84.7733,46.6334],[-84.8787,46.8979],[-88.3473,48.2987],[-89.499,47.9951]]],[[[-79.5208,50.9655],[-79.7471,51.1955],[-79.6968,51.3985],[-79.5208,51.4667],[-79.5208,50.9655]]]]}},{"type":"Feature","properties":{"id":"CA-QC","name":"Quebec","country":"Canada","iso":"CAN"},"geometry":{"type":"MultiPolygon","coordinates":[[[[-71.5041,45.0137],[-74.713,44.9993],[-74.0044,45.2452],[-73.7347,45.4186],[-73.519,45.4263],[-73.4488,45.7045],[-73.2173,45.8988],[-73.1561,46.0497],[-72.731,46.1766],[-72.2743,46.4206],[-72.1899,46.5262],[-71.8671,46.6667],[-71.7142,46.6322],[-71.3025,46.7452],[-71.1579,46.8408],[-70.9736,46.8619],[-70.5349,47.0106],[-69.4455,47.9919],[-68.2056,48.6419],[-66.6221,49.1226],[-65.5658,49.2665],[-64.6134,49.123],[-64.2987,48.9592],[-64.1553,48.7742],[-64.5594,48.8829],[-64.175,48.6445],[-64.2821,48.569],[-64.1888,48.5266],[-65.2856,48.0126],[-65.7838,48.1156],[-65.8957,48.2255],[-66.067,48.102],[-66.4733,48.1201],[-66.9191,47.9815],[-66.9616,47.8945],[-67.3637,47.8393],[-67.6128,47.9975],[-68.3779,47.9283],[-68.4081,47.5363],[-69.0636,47.2908],[-69.054,47.4184],[-69.2509,47.4529],[-70.0078,46.7041],[-70.0743,46.4195],[-70.2809,46.2119],[-70.2625,45.923],[-70.6868,45.5727],[-70.732,45.4916],[-70.6413,45.4085],[-70.813,45.4234],[-70.8924,45.2346],[-70.9932,45.3478],[-71.1603,45.2458],[-71.3343,45.2887],[-71.449,45.2269],[-71.5041,45.0137]]],[[[-79.5208,50.9429],[-79.3343,50.7269],[-79.5208,50.9655],[-79.5602,51.5555],[-79.2555,51.6387],[-79.2756,51.5316],[-79.0115,51.4674],[-78.9532,51.2192],[-78.847,51.1645],[-78.9198,51.233],[-78.8266,51.3501],[-78.8822,51.4033],[-78.69,51.4873],[-79.0388,51.7685],[-78.8406,51.8423],[-78.8926,51.9468],[-78.5913,52.1061],[-78.5467,52.2466],[-78.4082,52.2482],[-78.5528,52.2681],[-78.516,52.4768],[-78.7651,52.5704],[-78.69,52.5977],[-78.8502,52.7574],[-78.69,52.8851],[-78.8553,52.8839],[-78.9017,52.9266],[-78.7856,52.9819],[-78.9842,53.0284],[-78.8954,53.2686],[-79.1146,53.5089],[-78.9231,53.5667],[-79.1561,53.7081],[-79.0488,53.7257],[-79.0525,53.8378],[-78.9017,53.8173],[-79.1351,53.9614],[-78.9796,54.0192],[-79.2926,54.0911],[-79.0463,54.1805],[-79.3821,54.1941],[-79.2859,54.2556],[-79.464,54.3102],[-79.4503,54.42],[-79.6012,54.5572],[-79.5255,54.5914],[-79.7656,54.6596],[-77.7816,55.2735],[-76.6815,56.0429],[-76.5184,56.4136],[-76.5327,57.1153],[-76.8087,57.6755],[-77.4706,58.212],[-78.571,58.6387],[-78.4686,58.706],[-78.5657,58.9577],[-78.3164,58.9255],[-78.1066,59.2099],[-77.6752,59.4023],[-77.9154,59.4191],[-77.7303,59.5487],[-77.7782,59.7101],[-77.5703,59.6934],[-77.443,59.5776],[-77.3127,59.5668],[-77.5455,59.7449],[-77.2916,59.7995],[-77.425,59.9193],[-77.1892,60.0602],[-77.6342,60.0665],[-77.4083,60.1353],[-77.7432,60.4042],[-77.4151,60.5468],[-77.8293,60.6433],[-77.5106,60.841],[-77.8949,60.7523],[-77.97,60.7927],[-77.9194,60.8353],[-78.1965,60.7927],[-77.6927,61.2073],[-77.7853,61.4547],[-77.5455,61.4853],[-77.6413,61.5602],[-77.4766,61.54],[-77.9897,61.7148],[-78.137,62.0135],[-78.1549,62.2973],[-77.4718,62.5938],[-75.5922,62.273],[-75.8938,62.1638],[-75.3277,62.3175],[-74.5581,62.1091],[-74.755,62.2136],[-73.6707,62.4821],[-72.9474,62.1227],[-72.6291,62.1169],[-72.6078,61.9722],[-72.796,61.8354],[-72.6662,61.8832],[-72.6019,61.8126],[-72.6052,61.9437],[-72.2323,61.8813],[-72.1318,61.8006],[-72.2237,61.7502],[-71.9952,61.6771],[-72.0851,61.6063],[-72.2435,61.6176],[-72.3031,61.5679],[-71.9795,61.6038],[-71.9568,61.7112],[-71.581,61.6138],[-71.8574,61.5338],[-71.7482,61.4791],[-71.8916,61.4307],[-71.5831,61.4102],[-71.8227,61.355],[-71.6656,61.3345],[-71.7271,61.2873],[-71.5968,61.2594],[-71.5729,61.1557],[-71.4977,61.2309],[-71.3716,61.129],[-70.5354,61.0123],[-70.1553,61.0876],[-70.0897,60.9612],[-70.1512,60.882],[-69.9159,60.81],[-69.777,60.9195],[-69.6623,60.8852],[-69.651,61.0643],[-69.5366,61.0797],[-69.3697,60.9168],[-69.3813,60.7999],[-69.7198,60.684],[-69.6667,60.5672],[-69.829,60.5257],[-69.7198,60.3756],[-69.7655,60.3171],[-69.6024,60.2247],[-69.628,60.0767],[-69.8263,60.0716],[-69.8216,59.9892],[-71.0351,60.0665],[-69.7351,59.9703],[-69.7676,59.9156],[-69.5615,59.8647],[-69.6122,59.7839],[-69.5478,59.7648],[-69.6577,59.7033],[-69.5162,59.6493],[-69.7485,59.5161],[-69.6321,59.3851],[-69.7551,59.3177],[-69.4226,59.3615],[-69.2325,59.2413],[-69.5426,59.1695],[-69.3424,59.0938],[-69.5035,59.0733],[-69.4517,58.8952],[-69.6652,58.7922],[-69.6719,58.9274],[-69.8631,59.0597],[-69.8017,58.8263],[-69.9116,58.8741],[-70.2542,58.7717],[-69.9212,58.7791],[-69.9183,58.6864],[-69.7974,58.7008],[-69.8768,58.6447],[-69.8135,58.5965],[-69.3782,58.8695],[-68.7734,58.9217],[-68.4103,58.8239],[-68.3487,58.6003],[-68.191,58.5464],[-68.3541,58.1237],[-68.9701,57.9604],[-69.3697,57.7705],[-68.4176,58.0386],[-68.3099,58.1209],[-68.1739,58.4911],[-68.0062,58.5795],[-67.8898,58.4987],[-67.8627,58.3093],[-68.1295,58.083],[-67.8627,58.2373],[-67.7385,58.4692],[-67.6754,58.4234],[-67.7323,58.2851],[-67.648,58.2362],[-67.7401,57.9637],[-67.7135,57.9271],[-67.5679,58.2304],[-67.0869,58.3628],[-66.9466,58.4984],[-66.8522,58.425],[-66.6151,58.498],[-66.5954,58.6772],[-66.3824,58.8536],[-65.9442,58.6208],[-66.0534,58.3328],[-65.8275,58.5799],[-66.1086,58.7791],[-65.7956,58.8635],[-65.9822,58.9172],[-65.8616,58.943],[-65.8855,59.0082],[-65.6774,58.9286],[-65.7933,59.0051],[-65.6835,59.0528],[-65.5071,58.9881],[-65.5941,59.046],[-65.3197,59.046],[-65.6425,59.0733],[-65.7176,59.1583],[-65.7393,59.2706],[-65.5941,59.1894],[-65.6029,59.2571],[-65.4917,59.2583],[-65.559,59.3767],[-65.3576,59.2822],[-65.4472,59.3668],[-65.3818,59.4023],[-65.5599,59.491],[-64.984,59.3812],[-65.4119,59.5179],[-65.5463,59.7313],[-65.3235,59.848],[-65.0841,59.7717],[-64.984,59.7648],[-65.2309,59.8821],[-65.1405,59.8713],[-65.2098,59.923],[-65.0709,59.9433],[-65.1286,60.0466],[-64.8741,60.2042],[-64.9573,60.2589],[-64.8488,60.3657],[-64.5314,60.3039],[-64.8447,60.2641],[-64.5992,60.1178],[-64.9042,60.0478],[-64.6544,59.9167],[-64.7677,59.8801],[-64.7745,59.6992],[-64.9032,59.6038],[-64.702,59.4473],[-64.3494,59.5051],[-64.5034,59.4295],[-64.534,59.1953],[-64.2921,59.0073],[-64.7542,59.0651],[-64.8822,58.9351],[-64.3104,58.8847],[-64.1571,58.7508],[-63.7604,58.8791],[-63.4837,58.7586],[-64.0594,58.669],[-64.078,58.552],[-63.8904,58.5668],[-63.8199,58.4741],[-64.1564,58.3481],[-64.4276,58.0748],[-64.2214,58.0452],[-64.0539,57.7679],[-63.9394,57.801],[-63.6959,57.659],[-63.5839,57.7081],[-63.7649,57.5644],[-63.7079,57.3852],[-63.8692,57.2498],[-63.7433,57.2267],[-63.876,57.0592],[-63.8714,56.8781],[-64.1257,56.7093],[-63.8771,56.4393],[-64.1697,56.4257],[-64.0911,56.2628],[-63.8769,56.2173],[-64.0103,56.0698],[-63.8618,56.1233],[-63.8043,56.0432],[-63.4449,56.0228],[-63.8403,55.9133],[-63.669,55.6236],[-63.7674,55.4615],[-63.3302,55.3886],[-63.6599,55.2702],[-63.4104,55.252],[-63.5889,55.1208],[-63.6053,54.9022],[-63.8148,54.9405],[-63.904,54.782],[-63.7292,54.6471],[-63.8986,54.6016],[-64.3923,54.7892],[-64.7676,54.7382],[-64.7821,54.8348],[-65.1028,54.9568],[-65.2959,54.8257],[-65.4726,54.8421],[-65.4799,54.7309],[-65.6806,54.7148],[-65.856,54.9075],[-66.2543,54.9981],[-66.7704,55.3388],[-66.8372,55.3172],[-66.6887,55.2017],[-66.7623,55.1042],[-66.6608,54.9842],[-66.7288,54.9387],[-66.6071,54.8039],[-66.7013,54.7402],[-66.9665,54.8143],[-67.3094,55.0157],[-67.2741,55.066],[-67.4351,55.0635],[-67.0858,54.6806],[-67.2681,54.4846],[-67.4985,54.5946],[-67.5088,54.488],[-67.7496,54.4261],[-67.6395,54.1888],[-67.8081,54.034],[-67.3231,53.5663],[-66.8898,53.4149],[-67.0101,53.353],[-66.9964,53.0813],[-67.2406,53.1673],[-67.385,53.1054],[-67.3025,52.8681],[-67.0617,52.875],[-66.8657,52.6617],[-66.6559,52.7959],[-66.6249,52.9369],[-66.3635,53.0022],[-66.2879,52.8474],[-66.4014,52.844],[-66.2879,52.6101],[-66.4048,52.648],[-66.3498,52.3591],[-66.4805,52.335],[-66.3739,52.1424],[-66.2638,52.1561],[-66.2844,52.3075],[-65.9921,52.0598],[-65.655,52.108],[-65.6619,51.9876],[-65.5003,52.0977],[-65.3386,51.8191],[-64.7711,51.764],[-64.5304,51.5921],[-64.2793,51.74],[-64.3618,51.967],[-64.2346,51.9807],[-64.2518,52.1149],[-64.1555,52.1321],[-64.2208,52.2662],[-64.1279,52.3866],[-64.1658,52.6755],[-63.612,52.8612],[-63.3791,52.6512],[-63.8759,52.6084],[-64.0812,52.4734],[-63.9727,52.3536],[-63.7495,52.3224],[-63.6401,52.0506],[-63.8196,52.0681],[-63.7387,51.9998],[-57.101,52.0001],[-57.1003,51.419],[-57.25,51.5083],[-57.6859,51.4804],[-58.0402,51.3137],[-58.6227,51.2773],[-58.6256,51.1515],[-59.008,51.015],[-58.9403,50.8846],[-59.008,50.7611],[-59.0878,50.8877],[-59.2028,50.7319],[-59.4195,50.6649],[-59.424,50.54],[-59.8031,50.4457],[-59.8856,50.3769],[-59.8273,50.3281],[-60.1349,50.213],[-60.1535,50.2884],[-60.7941,50.2047],[-60.8026,50.2671],[-61.7179,50.1],[-61.7843,50.1099],[-61.5761,50.1874],[-61.7768,50.1341],[-61.8632,50.2302],[-62.7091,50.3154],[-63.4206,50.219],[-63.809,50.3154],[-65.9642,50.2932],[-66.0875,50.1925],[-66.4682,50.2685],[-66.5495,50.1983],[-66.4349,50.1575],[-66.6356,50.185],[-67.1315,49.8313],[-67.2451,49.4588],[-67.3763,49.3392],[-68.0546,49.2944],[-68.3009,49.1982],[-68.1811,49.1245],[-68.3923,49.0639],[-68.4443,49.0616],[-68.3698,49.1156],[-68.4033,49.1845],[-68.4443,49.1982],[-68.4071,49.123],[-68.6151,49.0395],[-68.6435,48.9177],[-69.0557,48.7735],[-69.676,48.1499],[-70.3692,48.3741],[-70.9872,48.4652],[-71.0698,48.4446],[-70.7885,48.3957],[-70.8656,48.3242],[-70.4775,48.3564],[-69.736,48.1225],[-69.932,47.7731],[-70.2369,47.4956],[-70.4869,47.4448],[-70.7506,47.0918],[-70.9569,47.0207],[-71.3417,46.7423],[-71.8805,46.6907],[-72.2279,46.5534],[-72.6025,46.3013],[-72.9945,46.2108],[-73.022,46.1096],[-73.1586,46.0749],[-73.4203,45.7651],[-73.7554,45.6764],[-73.9792,45.4984],[-74.3795,45.5616],[-74.0161,45.4504],[-73.9615,45.3542],[-74.1533,45.3201],[-74.3462,45.2206],[-74.478,45.3169],[-74.3935,45.5727],[-74.6437,45.6561],[-75.2836,45.5767],[-75.7755,45.3938],[-76.1284,45.5296],[-76.3435,45.4736],[-76.6475,45.5808],[-76.8177,45.8859],[-77.0166,45.7962],[-77.469,46.1151],[-78.694,46.3365],[-78.9641,46.533],[-79.4313,47.087],[-79.5803,47.4518],[-79.5129,47.5968],[-79.5208,50.9429]]],[[[-59.3411,50.538],[-59.3763,50.6523],[-59.3375,50.6444],[-59.296,50.5723],[-59.3411,50.538]]],[[[-58.3984,51.2545],[-58.4742,51.2204],[-58.5629,51.2334],[-58.4795,51.278],[-58.3984,51.2545]]],[[[-69.3542,59.1406],[-69.0613,59.0766],[-69.2189,58.9634],[-69.3635,58.9634],[-69.2862,59.0698],[-69.3542,59.1406]]],[[[-74.1284,45.3076],[-73.9206,45.3338],[-74.165,45.2697],[-74.1284,45.3076]]],[[[-73.9173,45.41],[-73.8581,45.3818],[-73.9845,45.4064],[-73.9173,45.41]]],[[[-73.8993,45.5009],[-73.9432,45.5076],[-73.8865,45.5234],[-73.8993,45.5009]]],[[[-73.8573,45.5494],[-73.7409,45.6643],[-73.5648,45.6987],[-73.7183,45.5624],[-73.8573,45.5494]]],[[[-73.4993,45.7099],[-73.5887,45.4479],[-73.9736,45.4446],[-73.694,45.5553],[-73.4993,45.7099]]],[[[-70.8854,47.0266],[-70.8743,46.937],[-71.1247,46.877],[-70.8854,47.0266]]],[[[-61.671,47.5465],[-61.7435,47.4831],[-61.8594,47.4237],[-61.7854,47.4338],[-61.6715,47.538],[-61.5925,47.5608],[-61.9656,47.283],[-61.793,47.2403],[-62.0106,47.2248],[-61.9255,47.4132],[-61.5621,47.6271],[-61.3822,47.6367],[-61.671,47.5465]]],[[[-63.7642,49.602],[-64.5106,49.8681],[-64.1328,49.9501],[-63.1241,49.7839],[-61.8826,49.3545],[-61.6608,49.151],[-61.8116,49.069],[-62.2482,49.0679],[-63.0933,49.2329],[-63.5868,49.39],[-63.7642,49.602]]],[[[-63.8575,50.2174],[-63.927,50.2214],[-63.9015,50.254],[-63.8575,50.2174]]],[[[-70.4254,47.405],[-70.3239,47.4274],[-70.4357,47.377],[-70.4254,47.405]]],[[[-68.8798,48.4035],[-68.8381,48.4138],[-68.8911,48.388],[-68.8798,48.4035]]],[[[-58.8856,50.7943],[-58.8463,50.7894],[-58.8611,50.7796],[-58.8856,50.7943]]],[[[-58.547,51.1504],[-58.4274,51.1671],[-58.6212,51.0918],[-58.547,51.1504]]],[[[-58.3076,51.2523],[-58.3629,51.2022],[-58.411,51.2016],[-58.3882,51.2389],[-58.3076,51.2523]]],[[[-67.5583,58.411],[-67.5308,58.2969],[-67.6359,58.291],[-67.6366,58.4022],[-67.5583,58.411]]],[[[-69.0612,59.0112],[-68.9746,58.9896],[-69.1203,58.9573],[-69.0612,59.0112]]],[[[-69.9219,61.0131],[-69.9776,60.9299],[-70.0039,60.9351],[-70.0119,60.9968],[-69.9219,61.0131]]],[[[-71.5864,61.302],[-71.4878,61.3371],[-71.4865,61.3019],[-71.5864,61.302]]],[[[-72.1308,61.889],[-71.9939,61.8707],[-71.9734,61.8589],[-72.1308,61.889]]],[[[-72.4624,62.0367],[-72.3842,62.0324],[-72.3281,62.016],[-72.4624,62.0367]]]]}},{"type":"Feature","properties":{"id":"RU-SAR","name":"Saratov","country":"Russia","iso":"RUS"},"geometry":{"type":"Polygon","coordinates":[[[50.6618,51.9542],[50.7907,51.5973],[50.5817,51.6353],[50.3254,51.3035],[49.7791,51.1022],[49.4365,51.1123],[49.3694,50.8268],[48.8304,50.596],[48.5683,50.6365],[48.6734,50.5795],[48.7828,50.1115],[48.8857,50.0199],[48.4299,49.8097],[48.2393,49.8648],[47.9932,50.1818],[47.6247,50.4408],[47.2395,50.3785],[47.2021,50.508],[46.9384,50.4889],[46.7163,50.6897],[46.5756,50.6987],[46.4698,50.5482],[46.0938,50.5261],[46.0649,50.6632],[45.8107,50.7736],[45.6782,50.7295],[45.6676,50.5936],[45.2282,50.5884],[45.2547,50.6786],[45.17,50.7152],[45.3081,50.8768],[45.0425,51.1263],[44.4463,51.2116],[44.2103,51.1935],[44.1617,51.0926],[44.0081,51.083],[43.9896,51.1737],[43.3298,51.0177],[42.8729,51.2313],[42.8609,51.3814],[42.4796,51.6765],[42.806,52.0122],[42.7515,52.1738],[42.9199,52.3697],[43.1753,52.4621],[44.3467,52.3161],[44.5373,52.4264],[44.5481,52.5524],[45.0452,52.3209],[45.1399,52.4205],[45.4315,52.4005],[45.6444,52.5186],[45.9806,52.4072],[45.9749,52.4922],[46.1505,52.598],[46.5821,52.7308],[47.0619,52.5702],[47.7078,52.5812],[47.8434,52.7231],[48.0196,52.6797],[48.0851,52.7204],[47.9978,52.7544],[48.2522,52.8101],[48.437,52.7804],[48.3558,52.6642],[48.691,52.6448],[48.8907,52.411],[49.287,52.4935],[49.3196,52.3904],[49.4993,52.3279],[49.5837,52.3976],[49.8123,52.1931],[50.2215,52.1299],[50.1675,52.0236],[50.6618,51.9542]]]}},{"type":"Feature","properties":{"id":"GB-HEF","name":"Herefordshire","country":"United Kingdom","iso":"GBR"},"geometry":{"type":"Polygon","coordinates":[[[-3.0513,51.9835],[-3.1247,52.129],[-2.9022,52.3808],[-2.4475,52.2585],[-2.3498,52.1067],[-2.3516,52.0139],[-2.4722,51.9972],[-2.4345,51.8966],[-2.6589,51.8177],[-3.0513,51.9835]]]}},{"type":"Feature","properties":{"id":"GB-DGY","name":"Dumfries and Galloway","country":"United Kingdom","iso":"GBR"},"geometry":{"type":"Polygon","coordinates":[[[-2.8503,55.1113],[-3.0503,54.9815],[-3.5705,54.9954],[-3.5817,54.8836],[-3.817,54.8862],[-3.9642,54.7719],[-4.4029,54.9073],[-4.3824,54.6801],[-4.8591,54.8663],[-4.9548,54.8048],[-4.8591,54.633],[-5.1807,54.9544],[-5.1151,55.0316],[-5.0131,54.9096],[-5.0325,54.9937],[-4.4186,55.143],[-4.297,55.3077],[-4.1353,55.2841],[-3.9764,55.4625],[-3.6423,55.2896],[-3.5003,55.4097],[-3.24,55.4258],[-3.3039,55.3427],[-2.8787,55.2722],[-2.8503,55.1113]]]}},{"type":"Feature","properties":{"id":"BR-RJ","name":"Rio de Janeiro","country":"Brazil","iso":"BRA"},"geometry":{"type":"MultiPolygon","coordinates":[[[[-40.9651,-21.274],[-41.0719,-21.5233],[-40.9726,-21.9867],[-41.6665,-22.2818],[-41.9663,-22.5354],[-41.993,-22.6999],[-41.8698,-22.7521],[-41.9896,-22.8263],[-42.0135,-22.9817],[-43.0314,-22.9743],[-43.1308,-22.9196],[-43.0251,-22.7355],[-43.0756,-22.6657],[-43.2702,-22.747],[-43.1512,-22.9333],[-43.2201,-22.9953],[-43.9888,-23.0974],[-43.6037,-23.0077],[-43.8502,-22.8923],[-44.2201,-23.0494],[-44.3578,-22.9196],[-44.7005,-23.1077],[-44.6514,-23.2848],[-44.5106,-23.2734],[-44.5838,-23.3532],[-44.8646,-23.2284],[-44.7922,-22.9835],[-44.2736,-22.8203],[-44.162,-22.6865],[-44.2198,-22.5889],[-44.6279,-22.6049],[-44.8313,-22.4061],[-43.7847,-22.0559],[-43.3277,-22.0018],[-43.1341,-22.0245],[-43.1381,-22.0965],[-42.3118,-21.7354],[-42.2648,-21.6671],[-42.3666,-21.5937],[-42.1377,-20.9563],[-41.9753,-20.923],[-41.9203,-20.8045],[-41.7417,-20.8218],[-41.7114,-21.1112],[-40.9651,-21.274]]],[[[-44.1009,-23.149],[-44.3277,-23.2213],[-44.3671,-23.1652],[-44.2351,-23.0688],[-44.1009,-23.149]]]]}},{"type":"Feature","properties":{"id":"BR-SP","name":"S\u00e3o Paulo","country":"Brazil","iso":"BRA"},"geometry":{"type":"MultiPolygon","coordinates":[[[[-44.7276,-23.3521],[-44.9193,-23.3488],[-45.0704,-23.5154],[-45.413,-23.6179],[-45.4267,-23.8307],[-45.8644,-23.7564],[-46.1461,-23.8444],[-46.2354,-23.9127],[-46.1119,-23.8649],[-46.1665,-23.9816],[-46.2877,-24.0212],[-46.3174,-24.0164],[-46.2764,-23.9816],[-46.2995,-23.9251],[-46.3854,-23.8735],[-46.4539,-23.9264],[-46.376,-24.0245],[-46.9366,-24.2734],[-47.0154,-24.4229],[-47.6339,-24.7556],[-47.8256,-24.8941],[-47.9606,-25.0499],[-48.0516,-25.0368],[-47.9497,-25.08],[-47.8871,-25.0573],[-48.0821,-25.3073],[-48.0325,-25.2294],[-48.179,-25.2041],[-48.2302,-25.0136],[-48.4205,-24.9597],[-48.5001,-25.0826],[-48.5749,-25.0485],[-48.4876,-24.7457],[-48.5817,-24.6818],[-49.2955,-24.666],[-49.2223,-24.35],[-49.5957,-23.8821],[-49.6381,-23.2593],[-49.9781,-22.9038],[-50.7649,-22.9539],[-50.8801,-22.8221],[-51.3469,-22.6519],[-51.6953,-22.6626],[-52.0667,-22.5217],[-52.2171,-22.6438],[-52.9472,-22.5708],[-53.168,-22.7017],[-52.967,-22.4589],[-52.3693,-22.0989],[-52.0436,-21.6661],[-52.1039,-21.5234],[-51.8674,-21.343],[-51.8711,-21.144],[-51.632,-20.877],[-51.58,-20.5964],[-50.5575,-19.8079],[-49.273,-19.9684],[-49.2164,-20.2941],[-49.0029,-20.1513],[-48.9011,-20.4387],[-48.8186,-20.1513],[-48.2426,-20.1377],[-48.2227,-20.0135],[-48.0716,-20.1509],[-47.9894,-20.0278],[-47.8817,-20.0998],[-47.8528,-19.9826],[-47.6358,-20.0385],[-47.4686,-19.9589],[-47.2346,-20.206],[-47.2921,-20.4375],[-47.1089,-20.6408],[-47.224,-20.9076],[-47.0006,-21.4006],[-46.6471,-21.3699],[-46.5095,-21.4539],[-46.6685,-21.8125],[-46.6173,-21.99],[-46.698,-22.0727],[-46.6007,-22.1326],[-46.7052,-22.3066],[-46.3857,-22.5316],[-46.476,-22.6706],[-46.3532,-22.8575],[-45.7866,-22.8493],[-45.7261,-22.5887],[-45.3991,-22.651],[-44.8313,-22.4061],[-44.6054,-22.6129],[-44.2155,-22.5906],[-44.1628,-22.6922],[-44.2736,-22.8203],[-44.7922,-22.9835],[-44.8646,-23.2284],[-44.7276,-23.3521]]],[[[-47.8319,-24.9133],[-47.4483,-24.6867],[-47.9001,-25.0368],[-47.8319,-24.9133]]],[[[-46.3937,-23.9202],[-46.2919,-23.9909],[-46.4204,-23.9474],[-46.3937,-23.9202]]],[[[-45.3085,-23.7214],[-45.2417,-23.9679],[-45.453,-23.8914],[-45.3085,-23.7214]]]]}},{"type":"Feature","properties":{"id":"AU-SA","name":"South Australia","country":"Australia","iso":"AUS"},"geometry":{"type":"MultiPolygon","coordinates":[[[[134.1956,-32.4959],[133.8644,-32.5468],[133.95,-32.3894],[133.6492,-32.1017],[133.2708,-32.2188],[132.7762,-31.9509],[132.2337,-32.033],[131.783,-31.7278],[131.1775,-31.4776],[130.7901,-31.6081],[130.1569,-31.5739],[129.0001,-31.6892],[129.0001,-25.9999],[141.0001,-25.9999],[140.9682,-38.0594],[140.6902,-38.0681],[140.3982,-37.9199],[139.7415,-37.1808],[139.7883,-37.1262],[139.672,-36.9534],[139.8635,-36.7673],[139.729,-36.3723],[139.4567,-35.9579],[138.9178,-35.5768],[139.4475,-35.9273],[139.672,-36.2278],[139.4754,-35.8964],[139.0414,-35.6041],[139.1553,-35.5034],[139.2295,-35.6894],[139.3381,-35.6874],[139.3557,-35.5934],[139.2189,-35.5073],[139.361,-35.4895],[139.363,-35.3769],[139.178,-35.3154],[138.9612,-35.4138],[139.0309,-35.5175],[138.7938,-35.484],[138.9934,-35.5475],[138.7459,-35.5388],[138.5313,-35.6459],[138.1074,-35.6207],[138.4382,-35.3427],[138.5506,-34.7819],[138.0781,-34.1284],[137.7495,-35.131],[136.8394,-35.2561],[137.0198,-34.9015],[137.4461,-34.9174],[137.5127,-34.6178],[137.4143,-34.4724],[137.4524,-34.1557],[137.6021,-33.8766],[137.9309,-33.6165],[137.8104,-33.26],[138.0402,-33.0816],[137.7739,-32.5198],[137.7783,-32.9828],[137.6321,-32.9615],[137.4522,-33.1401],[137.2249,-33.6533],[136.9456,-33.6823],[136.8831,-33.7548],[136.9646,-33.7531],[136.6074,-33.9029],[136.1148,-34.3837],[136.1014,-34.5348],[135.9368,-34.5346],[135.7995,-34.8053],[136.0164,-34.7441],[135.9646,-35.0075],[135.7827,-34.8576],[135.6326,-34.9529],[135.2879,-34.5925],[135.1081,-34.596],[135.2098,-34.4316],[135.3709,-34.6282],[135.5036,-34.6119],[135.3892,-34.5693],[135.1898,-33.893],[134.8408,-33.6313],[134.861,-33.4794],[134.7062,-33.1729],[134.5816,-33.1459],[134.6283,-33.2467],[134.4776,-33.1573],[134.3335,-33.205],[134.1486,-33.0275],[134.1907,-32.9465],[134.0687,-32.9293],[134.1328,-32.8356],[134.0741,-32.714],[134.2168,-32.7258],[134.214,-32.8062],[134.2976,-32.6785],[134.1956,-32.4959]]],[[[138.1296,-35.8163],[138.0477,-35.9186],[137.6288,-35.9103],[137.6023,-36.0258],[137.4592,-36.0827],[137.2279,-35.9798],[136.7156,-36.0628],[136.5326,-35.9119],[136.5978,-35.7575],[137.3351,-35.5829],[137.6229,-35.5821],[137.5808,-35.7268],[137.8128,-35.8115],[137.9356,-35.7265],[138.1296,-35.8163]]],[[[136.4475,-35.1694],[136.4763,-35.1447],[136.4985,-35.1721],[136.4475,-35.1694]]],[[[136.127,-34.9484],[136.2013,-35.0754],[136.0861,-34.9482],[136.127,-34.9484]]],[[[137.3362,-34.5153],[137.3738,-34.4982],[137.3548,-34.538],[137.3362,-34.5153]]],[[[134.4863,-33.7117],[134.5506,-33.7337],[134.479,-33.7836],[134.4863,-33.7117]]],[[[133.5657,-32.3212],[133.5794,-32.2597],[133.6755,-32.2394],[133.6204,-32.2597],[133.5657,-32.3212]]]]}},{"type":"Feature","properties":{"id":"AU-NSW","name":"New South Wales","country":"Australia","iso":"AUS"},"geometry":{"type":"Polygon","coordinates":[[[153.5065,-28.1493],[153.5911,-28.2685],[153.606,-28.8674],[153.3506,-29.281],[153.2949,-29.8266],[152.9878,-30.7346],[153.0879,-30.9267],[152.9345,-31.4828],[152.5464,-32.0437],[152.5399,-32.4421],[152.2948,-32.5596],[152.2192,-32.6972],[152.0609,-32.6979],[152.1851,-32.7668],[151.7992,-32.8937],[151.569,-33.2922],[151.4538,-33.3042],[151.4242,-33.5278],[151.2307,-33.5349],[151.2256,-33.6091],[151.3408,-33.6175],[151.2814,-33.9523],[151.0952,-34.0144],[151.2312,-34.0405],[150.801,-34.5483],[150.917,-34.6034],[150.7271,-34.8741],[150.8447,-35.0772],[150.6956,-35.0261],[150.2917,-35.7228],[150.1909,-35.7268],[150.2386,-35.8331],[150.0816,-36.0838],[150.1423,-36.32],[149.8761,-37.0959],[150.0536,-37.2687],[149.951,-37.2843],[149.9721,-37.5103],[148.1233,-36.7882],[148.2149,-36.6169],[147.9097,-36.005],[147.4837,-35.946],[147.3403,-36.0764],[147.1347,-36.0393],[147.0938,-36.168],[147.1963,-36.2203],[147.1069,-36.2412],[147.0053,-36.0901],[146.5043,-35.9739],[146.2162,-36.0558],[145.4938,-35.829],[145.0084,-35.8676],[144.9755,-36.0974],[144.7407,-36.135],[144.1001,-35.5868],[143.586,-35.3529],[143.5814,-35.2494],[143.364,-35.1072],[143.3281,-34.7844],[142.79,-34.5823],[142.6428,-34.7876],[142.548,-34.7709],[142.3858,-34.5334],[142.3965,-34.338],[142.0513,-34.116],[141.7061,-34.11],[141.5462,-34.2186],[141.0001,-34.0185],[141.0001,-28.9999],[148.9714,-28.9997],[149.4844,-28.5839],[150.2981,-28.5349],[150.4496,-28.6465],[150.7935,-28.635],[151.0459,-28.7349],[151.0621,-28.828],[151.2874,-28.9208],[151.3761,-29.1706],[151.5644,-28.9506],[152.0136,-28.8992],[152.067,-28.7032],[151.964,-28.5401],[152.4872,-28.2634],[153.1067,-28.3539],[153.5065,-28.1493]],[[149.1427,-35.4345],[149.403,-35.324],[149.1271,-35.1395],[148.8093,-35.3309],[148.7726,-35.6511],[148.9336,-35.8793],[149.0967,-35.8615],[149.1427,-35.4345]]]}},{"type":"Feature","properties":{"id":"AU-VIC","name":"Victoria","country":"Australia","iso":"AUS"},"geometry":{"type":"MultiPolygon","coordinates":[[[[149.9721,-37.5103],[149.7184,-37.5158],[149.7663,-37.5841],[149.6785,-37.691],[149.4912,-37.7833],[148.3064,-37.8234],[147.7576,-37.9851],[146.8477,-38.685],[146.2241,-38.7145],[146.2864,-38.9098],[146.4767,-38.8105],[146.4834,-39.0646],[146.3942,-39.145],[146.1817,-38.8683],[146.0918,-38.8198],[145.9212,-38.9067],[145.8093,-38.6502],[145.5996,-38.6801],[145.3731,-38.5368],[145.5569,-38.3852],[145.4644,-38.2346],[145.2559,-38.2415],[145.229,-38.4133],[144.9446,-38.5103],[144.6768,-38.3332],[144.9829,-38.3414],[145.1193,-38.1594],[144.9348,-37.8679],[144.3731,-38.1184],[144.7048,-38.1461],[144.6528,-38.2858],[144.4019,-38.3012],[143.537,-38.8583],[142.5025,-38.3744],[142.1755,-38.3987],[141.762,-38.2618],[141.5579,-38.4397],[141.3945,-38.4016],[141.3748,-38.2912],[140.9682,-38.0594],[140.9671,-33.9865],[141.5462,-34.2186],[141.7485,-34.1032],[142.2351,-34.1919],[142.3965,-34.338],[142.3858,-34.5334],[142.5566,-34.7742],[142.6428,-34.7876],[142.79,-34.5823],[143.3281,-34.7844],[143.364,-35.1072],[143.5814,-35.2494],[143.586,-35.3529],[144.1001,-35.5868],[144.7407,-36.135],[144.9755,-36.0974],[145.0084,-35.8676],[145.4938,-35.829],[146.2162,-36.0558],[146.5043,-35.9739],[147.0053,-36.0901],[147.1069,-36.2412],[147.1963,-36.2203],[147.0938,-36.168],[147.1347,-36.0393],[147.3403,-36.0764],[147.4837,-35.946],[147.9097,-36.005],[148.2149,-36.6169],[148.1233,-36.7882],[149.9721,-37.5103]]],[[[146.6023,-38.7468],[146.5389,-38.7971],[146.4714,-38.7472],[146.6023,-38.7468]]],[[[145.2793,-38.4516],[145.361,-38.5485],[145.3526,-38.571],[145.113,-38.5305],[145.2793,-38.4516]]],[[[145.2979,-38.2966],[145.4944,-38.3652],[145.2837,-38.4026],[145.2979,-38.2966]]]]}},{"type":"Feature","properties":{"id":"CO-VAC","name":"Valle del Cauca","country":"Colombia","iso":"COL"},"geometry":{"type":"Polygon","coordinates":[[[-77.4649,3.3016],[-77.381,3.3876],[-77.3189,3.32],[-77.3218,3.5478],[-77.1183,3.678],[-77.2008,3.7435],[-77.1256,3.7335],[-77.0316,3.9158],[-77.2916,3.8606],[-77.1892,4.0673],[-77.2643,4.1082],[-77.3621,3.928],[-77.4352,4.1528],[-77.2544,4.2422],[-76.7614,3.9959],[-76.575,4.0558],[-76.4396,4.2006],[-76.5457,4.3948],[-76.0759,5.0357],[-75.9193,4.7701],[-75.714,4.7129],[-75.8621,4.6129],[-75.8904,4.4236],[-75.7879,4.3508],[-75.8382,4.1218],[-75.7454,4.0415],[-75.9888,3.6468],[-76.0758,3.2133],[-76.4367,3.3179],[-76.5533,3.1101],[-76.7786,3.1839],[-76.8696,3.0929],[-77.1096,3.1919],[-77.2615,3.124],[-77.4649,3.3016]]]}},{"type":"Feature","properties":{"id":"CO-ATL","name":"Atl\u00e1ntico","country":"Colombia","iso":"COL"},"geometry":{"type":"Polygon","coordinates":[[[-75.2563,10.7093],[-74.9236,11.0457],[-74.7743,11.01],[-74.7286,10.584],[-74.9175,10.2674],[-75.2538,10.4974],[-75.2563,10.7093]]]}},{"type":"Feature","properties":{"id":"NG-RI","name":"Rivers State","country":"Nigeria","iso":"NGA"},"geometry":{"type":"MultiPolygon","coordinates":[[[[7.5335,4.7027],[7.502,4.5727],[7.281,4.6011],[7.281,4.5049],[7.0718,4.7581],[7.1846,4.519],[7.044,4.4366],[6.9627,4.7309],[6.9893,4.6079],[6.9026,4.6669],[7.0221,4.3885],[6.8801,4.3882],[6.7853,4.817],[6.7156,4.8345],[6.8708,4.3608],[6.7156,4.3547],[6.7361,4.6079],[6.3858,4.8174],[6.49,5.2023],[6.62,5.3341],[6.4747,5.4385],[6.6057,5.7232],[6.7338,5.2942],[6.8702,5.1949],[7.2515,5.1947],[7.1765,4.8737],[7.4294,4.8621],[7.5335,4.7027]]],[[[7.3369,4.4601],[7.5845,4.4846],[7.4318,4.4348],[7.3369,4.4601]]],[[[7.2295,4.5328],[7.2984,4.4147],[7.138,4.397],[7.2295,4.5328]]]]}},{"type":"Feature","properties":{"id":"JP-14","name":"Kanagawa Prefecture","country":"Japan","iso":"JPN"},"geometry":{"type":"Polygon","coordinates":[[[139.7866,35.5115],[139.6423,35.4543],[139.6484,35.2979],[139.7455,35.249],[139.6643,35.1348],[139.5442,35.3079],[139.4149,35.3188],[139.0288,35.1356],[138.9866,35.3811],[138.9003,35.3809],[139.091,35.514],[139.1218,35.654],[139.4631,35.4898],[139.5274,35.614],[139.7866,35.5115]]]}},{"type":"Feature","properties":{"id":"JP-27","name":"\u014csaka Prefecture","country":"Japan","iso":"JPN"},"geometry":{"type":"MultiPolygon","coordinates":[[[[135.0853,34.2992],[135.4083,34.541],[135.4398,34.9037],[135.3633,34.9975],[135.6464,34.8992],[135.7148,34.7853],[135.622,34.5534],[135.6654,34.3811],[135.0853,34.2992]]],[[[135.2244,34.4163],[135.241,34.4546],[135.2571,34.4358],[135.2244,34.4163]]]]}},{"type":"Feature","properties":{"id":"GB-NYK","name":"North Yorkshire","country":"United Kingdom","iso":"GBR"},"geometry":{"type":"Polygon","coordinates":[[[-0.7788,54.5574],[-0.5347,54.461],[-0.1999,54.1525],[-0.3981,54.1699],[-0.928,53.9718],[-1.1468,54.0278],[-1.218,53.9146],[-0.9203,53.8077],[-0.9256,53.7227],[-1.1264,53.6338],[-1.247,53.6355],[-1.3337,53.9449],[-1.9436,53.9577],[-2.0326,53.8476],[-2.5514,54.1283],[-2.3039,54.2486],[-2.3472,54.3502],[-2.2447,54.448],[-1.7136,54.5316],[-1.4603,54.4416],[-0.8383,54.4872],[-0.7788,54.5574]]]}},{"type":"Feature","properties":{"id":"GB-ESS","name":"Essex","country":"United Kingdom","iso":"GBR"},"geometry":{"type":"Polygon","coordinates":[[[0.7878,51.9547],[1.282,51.9466],[1.1996,51.8777],[1.2883,51.8606],[0.6986,51.72],[0.9456,51.7337],[0.9518,51.617],[0.8283,51.5418],[0.5689,51.5084],[-0.0128,51.6499],[0.0356,51.7683],[0.1903,51.8166],[0.1064,52.0549],[0.6783,52.0772],[0.7878,51.9547]]]}},{"type":"Feature","properties":{"id":"GB-BNH","name":"Brighton and Hove","country":"United Kingdom","iso":"GBR"},"geometry":{"type":"Polygon","coordinates":[[[0.0175,50.7849],[-0.2089,50.8301],[-0.2306,50.8674],[-0.1528,50.8913],[0.0175,50.7849]]]}},{"type":"Feature","properties":{"id":"GB-STH","name":"Southampton","country":"United Kingdom","iso":"GBR"},"geometry":{"type":"Polygon","coordinates":[[[-1.3186,50.8569],[-1.4493,50.9121],[-1.4469,50.9255],[-1.3087,50.9213],[-1.3186,50.8569]]]}},{"type":"Feature","properties":{"id":"GB-DEV","name":"Devon","country":"United Kingdom","iso":"GBR"},"geometry":{"type":"MultiPolygon","coordinates":[[[[-2.8823,50.7972],[-3.3682,50.6171],[-3.4644,50.6785],[-3.5054,50.5082],[-3.6466,50.4475],[-3.5269,50.3498],[-3.789,50.2124],[-4.1083,50.3366],[-4.0418,50.3993],[-4.2369,50.4626],[-4.1823,50.5066],[-4.377,50.7644],[-4.4853,50.786],[-4.4584,50.9211],[-4.5481,50.923],[-4.5264,51.015],[-4.208,51.0764],[-4.2285,51.1925],[-3.7692,51.2477],[-3.7242,51.1785],[-3.8128,51.1288],[-3.0475,50.9058],[-2.8823,50.7972]]],[[[-4.6764,51.1931],[-4.6635,51.1649],[-4.6705,51.1601],[-4.6764,51.1931]]]]}},{"type":"Feature","properties":{"id":"GB-LIV","name":"Liverpool","country":"United Kingdom","iso":"GBR"},"geometry":{"type":"Polygon","coordinates":[[[-2.8759,53.3312],[-2.9569,53.3706],[-3.0482,53.481],[-2.8986,53.4656],[-2.8759,53.3312]]]}},{"type":"Feature","properties":{"id":"IT-SA","name":"Salerno","country":"Italy","iso":"ITA"},"geometry":{"type":"Polygon","coordinates":[[[15.6467,40.0469],[15.3609,39.9989],[14.9111,40.2416],[15.0004,40.3688],[14.8888,40.5731],[14.7522,40.6767],[14.4714,40.6247],[14.5822,40.6868],[14.5157,40.7696],[14.7102,40.8484],[15.1724,40.7114],[15.3221,40.8375],[15.7891,40.2618],[15.6467,40.0469]]]}},{"type":"Feature","properties":{"id":"IT-NA","name":"Naples","country":"Italy","iso":"ITA"},"geometry":{"type":"MultiPolygon","coordinates":[[[[14.5822,40.6868],[14.3426,40.5706],[14.4741,40.7297],[14.2942,40.8388],[14.0477,40.7896],[14.0101,40.9368],[14.572,41.0095],[14.6691,40.9009],[14.5797,40.8992],[14.5101,40.7566],[14.5822,40.6868]]],[[[13.9658,40.7351],[13.8491,40.7153],[13.8628,40.7624],[13.9658,40.7351]]]]}},{"type":"Feature","properties":{"id":"FR-13","name":"Bouches-du-Rh\u00f4ne","country":"France","iso":"FRA"},"geometry":{"type":"Polygon","coordinates":[[[5.6722,43.1804],[5.347,43.2159],[5.2942,43.3555],[5.034,43.3355],[5.0261,43.4093],[5.2263,43.4803],[5.0291,43.5586],[5.0511,43.4293],[4.8682,43.4215],[4.8558,43.3418],[4.7578,43.4223],[4.7424,43.5245],[4.6946,43.5791],[4.7425,43.4226],[4.8203,43.3464],[4.2059,43.4599],[4.4531,43.591],[4.4771,43.6931],[4.6088,43.6987],[4.6409,43.8706],[4.7728,43.9328],[5.5309,43.6693],[5.774,43.726],[5.6809,43.6108],[5.7789,43.4101],[5.6827,43.3991],[5.761,43.2786],[5.6722,43.1804]]]}},{"type":"Feature","properties":{"id":"NL-ZH","name":"South Holland","country":"Netherlands","iso":"NLD"},"geometry":{"type":"Polygon","coordinates":[[[4.6756,51.7194],[4.1257,51.6796],[4.1769,51.6859],[3.8623,51.8161],[4.0776,51.8436],[4.0156,51.9877],[4.5081,52.3364],[4.6097,52.3134],[4.5481,52.2204],[4.8627,52.168],[4.7994,52.0227],[4.8873,51.9412],[5.1826,51.9669],[4.6756,51.7194]]]}},{"type":"Feature","properties":{"id":"NL-NH","name":"North Holland","country":"Netherlands","iso":"NLD"},"geometry":{"type":"MultiPolygon","coordinates":[[[[4.5081,52.3364],[4.7455,52.9676],[4.9131,52.9056],[5.1798,53.009],[5.3703,52.7903],[5.3589,52.689],[5.0952,52.5822],[5.1939,52.4285],[5.1049,52.3638],[5.3676,52.2833],[5.202,52.1874],[5.045,52.1681],[5.0658,52.2792],[4.9936,52.2854],[4.5741,52.2136],[4.6097,52.3134],[4.5081,52.3364]]],[[[4.8543,53.1877],[4.7957,53.0003],[4.7077,53.0285],[4.8543,53.1877]]]]}},{"type":"Feature","properties":{"id":"DE-HH","name":"Hamburg","country":"Germany","iso":"DEU"},"geometry":{"type":"Polygon","coordinates":[[[9.764,53.5477],[9.832,53.5436],[9.7684,53.6292],[10.1874,53.7275],[10.1832,53.529],[10.328,53.4327],[9.9129,53.4156],[9.764,53.5477]]]}},{"type":"Feature","properties":{"id":"AU-NSW","name":"Lord Howe Island","country":"Australia","iso":"AUS"},"geometry":{"type":"Polygon","coordinates":[[[159.0896,-31.589],[159.0689,-31.5209],[159.1065,-31.5676],[159.0896,-31.589]]]}},{"type":"Feature","properties":{"id":"NZ-AUK","name":"Auckland","country":"New Zealand","iso":"NZL"},"geometry":{"type":"MultiPolygon","coordinates":[[[[175.1686,-36.7411],[175.1826,-36.825],[175.0117,-36.8027],[175.0183,-36.7615],[175.1686,-36.7411]]],[[[174.8455,-36.4485],[174.8955,-36.4015],[174.906,-36.4492],[174.8455,-36.4485]]],[[[175.0808,-36.2057],[175.155,-36.2136],[175.1004,-36.2278],[175.0808,-36.2057]]],[[[175.3755,-36.0659],[175.5228,-36.3521],[175.3338,-36.2237],[175.3755,-36.0659]]],[[[174.6729,-37.2938],[174.5583,-37.0628],[174.6673,-37.0695],[174.74,-37.2444],[174.8049,-37.1663],[174.7166,-37.1526],[174.937,-37.0655],[174.7683,-36.9335],[174.5003,-37.0322],[174.1823,-36.4532],[174.4314,-36.6656],[174.466,-36.3732],[174.3312,-36.3925],[174.271,-36.3377],[174.6562,-36.1335],[174.8805,-36.3513],[174.7507,-36.3544],[174.7788,-36.4872],[174.7166,-36.4116],[174.7229,-36.5937],[174.8569,-36.6109],[174.7235,-36.6313],[174.8191,-36.8237],[174.7036,-36.7585],[174.6211,-36.7963],[174.6802,-36.9074],[174.8757,-36.851],[174.8914,-36.9578],[174.9352,-36.8373],[174.9631,-36.9335],[175.0588,-36.8776],[175.0934,-36.9705],[175.326,-37.0095],[175.1832,-37.0396],[175.0984,-37.1892],[174.6729,-37.2938]]]]}},{"type":"Feature","properties":{"id":"NZ-WKO","name":"Waikato","country":"New Zealand","iso":"NZL"},"geometry":{"type":"MultiPolygon","coordinates":[[[[175.7992,-36.5698],[175.7975,-36.6218],[175.772,-36.5766],[175.7992,-36.5698]]],[[[174.6176,-38.7074],[174.7098,-38.1048],[174.8467,-38.1537],[174.9426,-38.0973],[174.792,-38.0847],[174.888,-37.9669],[174.7881,-37.9853],[174.7918,-37.872],[174.9768,-37.8038],[174.97,-37.7348],[174.8504,-37.7649],[174.7285,-37.4578],[174.8379,-37.299],[174.7285,-37.363],[174.6729,-37.2938],[175.0984,-37.1892],[175.1832,-37.0396],[175.326,-37.0095],[175.3672,-37.2072],[175.6279,-37.242],[175.4362,-36.8647],[175.5371,-36.7861],[175.4976,-36.6313],[175.3543,-36.491],[175.5322,-36.5077],[175.6281,-36.7638],[175.8517,-36.7184],[175.7036,-36.8448],[175.8508,-36.841],[175.9197,-37.0546],[175.9587,-37.3687],[175.8092,-37.508],[175.9748,-37.9795],[176.1003,-38.1572],[176.4983,-38.3873],[176.4854,-38.5056],[176.215,-38.9868],[175.8139,-39.2973],[175.5942,-39.2745],[175.6656,-38.9819],[175.5653,-38.9685],[175.5264,-38.7577],[175.6288,-38.5878],[175.5655,-38.4945],[174.9712,-38.6688],[174.8683,-38.7771],[174.6176,-38.7074]]]]}},{"type":"Feature","properties":{"id":"DE-HE","name":"Hesse","country":"Germany","iso":"DEU"},"geometry":{"type":"Polygon","coordinates":[[[9.9492,51.3818],[9.947,51.3039],[10.2329,51.1799],[10.126,51.1361],[10.1911,50.9966],[9.9519,50.9359],[10.056,50.8826],[9.8777,50.6436],[10.0603,50.6659],[10.055,50.5165],[9.779,50.4143],[9.6612,50.2343],[9.5079,50.2356],[9.5067,50.1081],[9.0121,50.0991],[9.1409,49.7873],[9.1268,49.5082],[8.8144,49.403],[8.8905,49.5061],[8.6757,49.6225],[8.5662,49.5273],[8.4168,49.5795],[8.3623,49.6909],[8.4766,49.7675],[8.2281,50.0382],[7.8782,49.9729],[7.7714,50.0535],[8.1221,50.2717],[7.9734,50.4003],[8.0045,50.5207],[8.1638,50.5858],[8.1342,50.7813],[8.4638,50.9145],[8.5247,51.0933],[8.7063,51.1063],[8.7228,51.2687],[8.5756,51.2702],[8.6816,51.362],[8.9351,51.3913],[8.9009,51.4762],[9.0154,51.5092],[9.2124,51.457],[9.4668,51.655],[9.6861,51.5719],[9.5694,51.3423],[9.7256,51.2907],[9.7964,51.4084],[9.9492,51.3818]]]}},{"type":"Feature","properties":{"id":"CO-MET","name":"Meta","country":"Colombia","iso":"COL"},"geometry":{"type":"Polygon","coordinates":[[[-74.8975,2.9507],[-74.6517,3.26],[-74.4936,3.704],[-74.4278,3.6796],[-74.2236,4.0096],[-73.7519,4.2022],[-73.8107,4.421],[-73.7096,4.5179],[-73.5277,4.2999],[-73.1443,4.2263],[-73.053,4.7348],[-72.7256,4.3006],[-72.1499,4.4507],[-72.0498,4.3883],[-71.0603,4.9194],[-71.0637,2.8686],[-71.6226,2.8157],[-71.7432,2.882],[-71.9804,2.7991],[-72.121,2.8671],[-72.2523,2.6976],[-72.5537,2.6754],[-72.642,2.5628],[-72.8199,2.5967],[-73.1448,2.3617],[-73.6067,2.3826],[-73.6751,1.6245],[-74.5505,1.8714],[-74.6159,2.0431],[-74.5437,2.1819],[-74.6594,2.3826],[-74.5964,2.7212],[-74.7126,2.897],[-74.8975,2.9507]]]}},{"type":"Feature","properties":{"id":"BR-GO","name":"Goi\u00e1s","country":"Brazil","iso":"BRA"},"geometry":{"type":"Polygon","coordinates":[[[-47.3025,-16.0401],[-47.4534,-16.4994],[-47.2665,-16.6618],[-47.1512,-16.9775],[-47.5305,-17.4549],[-47.2714,-17.581],[-47.3559,-17.8308],[-47.2777,-18.0599],[-47.8991,-18.4491],[-48.9523,-18.3263],[-49.3769,-18.6314],[-49.5135,-18.496],[-50.2977,-18.7002],[-50.5454,-19.1092],[-50.844,-19.2948],[-50.8709,-19.4859],[-51.1131,-19.293],[-51.8421,-19.0481],[-52.4827,-18.7074],[-52.8696,-18.6805],[-52.7744,-18.3998],[-53.051,-18.3266],[-53.0538,-18.0166],[-53.2448,-17.5924],[-53.0194,-16.8679],[-52.7122,-16.6506],[-52.6155,-16.4261],[-52.6749,-16.3007],[-52.5325,-16.1521],[-52.2306,-15.8987],[-51.8716,-15.7925],[-51.6396,-15.1793],[-51.1003,-14.8879],[-50.9249,-14.1216],[-50.8458,-14.0841],[-50.8664,-13.7161],[-50.5743,-13.2466],[-50.4465,-12.7004],[-50.1503,-12.3999],[-50.2582,-12.9205],[-49.3835,-13.2481],[-49.1378,-12.7349],[-49.0042,-12.6545],[-48.7975,-12.9291],[-48.7493,-13.3849],[-48.6444,-13.1628],[-48.3852,-13.1919],[-48.1655,-13.0647],[-48.1686,-13.18],[-47.6669,-13.3556],[-47.725,-13.1676],[-47.6554,-13.1018],[-47.5333,-13.2984],[-46.7782,-13.0548],[-46.4454,-12.8478],[-46.2335,-12.7966],[-46.0705,-12.9342],[-46.1806,-13.1926],[-46.0755,-13.3093],[-46.1965,-13.4186],[-46.2751,-13.7502],[-46.1256,-14.1889],[-45.9205,-14.3508],[-45.9196,-14.7247],[-46.1824,-14.9357],[-46.5168,-14.7133],[-46.5668,-15.0565],[-46.8789,-15.0338],[-46.9299,-15.2286],[-46.8548,-15.3238],[-46.9366,-15.4318],[-46.8358,-15.8644],[-47.3025,-16.0401]],[[-47.3025,-16.0401],[-47.3059,-15.5947],[-47.423,-15.4983],[-48.1912,-15.503],[-48.252,-16.0315],[-47.3025,-16.0401]]]}},{"type":"Feature","properties":{"id":"GB-WSM","name":"Westminster","country":"United Kingdom","iso":"GBR"},"geometry":{"type":"Polygon","coordinates":[[[-0.1471,51.5304],[-0.1664,51.4921],[-0.2111,51.522],[-0.1471,51.5304]]]}},{"type":"Feature","properties":{"id":"GB-HNS","name":"Hounslow","country":"United Kingdom","iso":"GBR"},"geometry":{"type":"Polygon","coordinates":[[[-0.2709,51.4963],[-0.3844,51.4137],[-0.4403,51.438],[-0.3927,51.4936],[-0.2709,51.4963]]]}},{"type":"Feature","properties":{"id":"GB-HMF","name":"Hammersmith and Fulham","country":"United Kingdom","iso":"GBR"},"geometry":{"type":"Polygon","coordinates":[[[-0.1712,51.4726],[-0.2445,51.4944],[-0.2366,51.5265],[-0.1712,51.4726]]]}},{"type":"Feature","properties":{"id":"GB-NET","name":"Newcastle upon Tyne","country":"United Kingdom","iso":"GBR"},"geometry":{"type":"Polygon","coordinates":[[[-1.7495,55.0027],[-1.6493,55.0677],[-1.49,54.9831],[-1.7495,55.0027]]]}},{"type":"Feature","properties":{"id":"GB-HRT","name":"Hertfordshire","country":"United Kingdom","iso":"GBR"},"geometry":{"type":"Polygon","coordinates":[[[-0.0113,51.6772],[-0.4935,51.5909],[-0.5267,51.7349],[-0.73,51.8277],[-0.3645,51.826],[-0.375,51.978],[0.0514,52.0433],[0.1992,51.8658],[-0.0113,51.6772]]]}},{"type":"Feature","properties":{"id":"GB-CAM","name":"Cambridgeshire","country":"United Kingdom","iso":"GBR"},"geometry":{"type":"Polygon","coordinates":[[[-0.1092,52.0194],[-0.132,52.1336],[-0.4856,52.3486],[-0.3356,52.4555],[-0.4144,52.5596],[-0.2868,52.5041],[0.1724,52.7243],[0.2339,52.5069],[0.4472,52.4322],[0.3897,52.3902],[0.5103,52.2746],[0.3497,52.2577],[0.4986,52.1608],[0.3911,52.0355],[-0.1092,52.0194]]]}},{"type":"Feature","properties":{"id":"GB-BEN","name":"Brent","country":"United Kingdom","iso":"GBR"},"geometry":{"type":"Polygon","coordinates":[[[-0.179,51.5283],[-0.2744,51.5263],[-0.3255,51.5493],[-0.2668,51.601],[-0.179,51.5283]]]}},{"type":"Feature","properties":{"id":"GB-HRW","name":"Harrow","country":"United Kingdom","iso":"GBR"},"geometry":{"type":"Polygon","coordinates":[[[-0.2936,51.6383],[-0.3678,51.5484],[-0.3998,51.6148],[-0.2936,51.6383]]]}},{"type":"Feature","properties":{"id":"GB-NTT","name":"Nottinghamshire","country":"United Kingdom","iso":"GBR"},"geometry":{"type":"Polygon","coordinates":[[[-0.9194,53.4874],[-0.7972,53.4523],[-0.7765,53.2342],[-0.6389,53.2416],[-0.745,53.1708],[-0.6886,53.0497],[-0.9795,52.8077],[-1.2256,52.778],[-1.3098,53.1428],[-0.9194,53.4874]],[[-1.2278,52.9443],[-1.1041,52.9189],[-1.1609,52.995],[-1.2278,52.9443]]]}},{"type":"Feature","properties":{"id":"GB-NTH","name":"Northamptonshire","country":"United Kingdom","iso":"GBR"},"geometry":{"type":"Polygon","coordinates":[[[-0.3356,52.4555],[-0.8784,52.116],[-0.8901,52.02],[-1.0233,52.0647],[-1.1837,51.9783],[-1.265,51.9797],[-1.3067,52.0774],[-1.2372,52.096],[-1.3212,52.1615],[-1.1866,52.3813],[-0.4907,52.6365],[-0.3356,52.4555]]]}},{"type":"Feature","properties":{"id":"GB-LBH","name":"Lambeth","country":"United Kingdom","iso":"GBR"},"geometry":{"type":"Polygon","coordinates":[[[-0.0746,51.4192],[-0.1427,51.4584],[-0.1079,51.5053],[-0.0746,51.4192]]]}},{"type":"Feature","properties":{"id":"GB-SWK","name":"Southwark","country":"United Kingdom","iso":"GBR"},"geometry":{"type":"Polygon","coordinates":[[[-0.1079,51.5053],[-0.0236,51.4959],[-0.0746,51.4192],[-0.1079,51.5053]]]}},{"type":"Feature","properties":{"id":"GB-CRY","name":"Croydon","country":"United Kingdom","iso":"GBR"},"geometry":{"type":"Polygon","coordinates":[[[-0.1281,51.2891],[-0.0764,51.4143],[0.0131,51.3207],[-0.1281,51.2891]]]}},{"type":"Feature","properties":{"id":"GB-LEW","name":"Lewisham","country":"United Kingdom","iso":"GBR"},"geometry":{"type":"Polygon","coordinates":[[[-0.0667,51.421],[0.0151,51.4649],[0.0432,51.4207],[-0.0667,51.421]]]}},{"type":"Feature","properties":{"id":"GB-HRY","name":"Haringey","country":"United Kingdom","iso":"GBR"},"geometry":{"type":"Polygon","coordinates":[[[-0.0527,51.5736],[-0.1627,51.5664],[-0.03,51.6011],[-0.0527,51.5736]]]}},{"type":"Feature","properties":{"id":"GB-NWM","name":"Newham","country":"United Kingdom","iso":"GBR"},"geometry":{"type":"Polygon","coordinates":[[[0.0719,51.4924],[-0.0106,51.5524],[0.0994,51.5176],[0.0719,51.4924]]]}},{"type":"Feature","properties":{"id":"GB-GRE","name":"Greenwich","country":"United Kingdom","iso":"GBR"},"geometry":{"type":"Polygon","coordinates":[[[0.0674,51.4226],[0.008,51.5005],[0.1205,51.5028],[0.0674,51.4226]]]}},{"type":"Feature","properties":{"id":"GB-HCK","name":"Hackney","country":"United Kingdom","iso":"GBR"},"geometry":{"type":"Polygon","coordinates":[[[-0.072,51.516],[-0.0903,51.571],[-0.0106,51.5524],[-0.072,51.516]]]}},{"type":"Feature","properties":{"id":"GB-WOR","name":"Worcestershire","country":"United Kingdom","iso":"GBR"},"geometry":{"type":"Polygon","coordinates":[[[-1.7578,52.1058],[-1.832,52.008],[-2.3078,51.9736],[-2.4475,52.2585],[-2.607,52.2417],[-2.6409,52.3322],[-2.0306,52.4369],[-1.8445,52.3836],[-1.9445,52.1647],[-1.7578,52.1058]]]}},{"type":"Feature","properties":{"id":"GB-OXF","name":"Oxfordshire","country":"United Kingdom","iso":"GBR"},"geometry":{"type":"Polygon","coordinates":[[[-1.6028,51.5202],[-1.6525,51.9839],[-1.5498,51.9691],[-1.3212,52.1615],[-1.2372,52.096],[-1.3067,52.0774],[-1.265,51.9797],[-1.0531,51.9927],[-1.0472,51.833],[-1.1283,51.8274],[-0.8845,51.7163],[-0.9445,51.6191],[-0.8732,51.5075],[-1.6028,51.5202]]]}},{"type":"Feature","properties":{"id":"GB-SLG","name":"Slough","country":"United Kingdom","iso":"GBR"},"geometry":{"type":"Polygon","coordinates":[[[-0.6362,51.4937],[-0.5236,51.5063],[-0.5184,51.4394],[-0.6362,51.4937]]]}},{"type":"Feature","properties":{"id":"GB-SRY","name":"Surrey","country":"United Kingdom","iso":"GBR"},"geometry":{"type":"Polygon","coordinates":[[[-0.4414,51.4539],[-0.3122,51.3241],[0.0,51.3295],[0.0627,51.1358],[-0.6881,51.0708],[-0.8236,51.1516],[-0.7653,51.3313],[-0.4414,51.4539]]]}},{"type":"Feature","properties":{"id":"GB-NGM","name":"Nottingham","country":"United Kingdom","iso":"GBR"},"geometry":{"type":"Polygon","coordinates":[[[-1.1609,52.995],[-1.1041,52.9189],[-1.171,52.8723],[-1.2278,52.9443],[-1.1609,52.995]]]}},{"type":"Feature","properties":{"id":"GB-LCE","name":"Leicester","country":"United Kingdom","iso":"GBR"},"geometry":{"type":"Polygon","coordinates":[[[-1.1799,52.6382],[-1.0642,52.5955],[-1.1674,52.5753],[-1.1799,52.6382]]]}},{"type":"Feature","properties":{"id":"NG-BA","name":"Bauchi State","country":"Nigeria","iso":"NGA"},"geometry":{"type":"Polygon","coordinates":[[[11.075,9.6104],[10.5604,9.4967],[9.8723,9.8371],[9.7354,9.5672],[9.2991,9.5822],[9.1597,9.7289],[9.1772,9.996],[8.9605,10.0231],[8.9368,10.2868],[8.6967,10.4238],[8.8154,10.6641],[8.7375,11.0215],[9.0988,11.3262],[9.8105,11.2614],[9.9483,10.9537],[10.1798,10.9334],[10.3615,11.1174],[10.3902,11.1776],[10.0006,11.2623],[9.7933,11.4817],[9.7987,11.7145],[9.6252,11.7294],[9.6997,11.8512],[10.155,12.0085],[10.2875,12.4244],[10.6095,12.5024],[10.7484,12.3643],[10.9681,11.5753],[10.9393,11.3361],[11.0142,11.2947],[10.6738,11.0414],[10.5386,10.7116],[10.8233,10.4456],[10.8432,10.1876],[10.7236,10.0971],[10.9714,9.8878],[11.075,9.6104]]]}},{"type":"Feature","properties":{"id":"RU-MOS","name":"Moscow","country":"Russia","iso":"RUS"},"geometry":{"type":"MultiPolygon","coordinates":[[[[37.12,54.9908],[36.9043,55.2291],[37.0145,55.3012],[36.9128,55.5166],[37.1749,55.4478],[37.2106,55.6016],[37.4141,55.6599],[37.3482,55.744],[37.4138,55.9394],[37.8005,55.8377],[37.8784,55.7151],[37.6591,55.5689],[37.5656,55.3585],[37.4113,55.3205],[37.4248,55.1842],[37.12,54.9908]]],[[[37.1769,55.9908],[37.2937,56.0304],[37.3021,55.9971],[37.1769,55.9908]]],[[[37.0017,55.7321],[37.154,55.6967],[36.9912,55.68],[37.0017,55.7321]]]]}},{"type":"Feature","properties":{"id":"NG-KD","name":"Kaduna State","country":"Nigeria","iso":"NGA"},"geometry":{"type":"Polygon","coordinates":[[[8.7413,10.549],[8.6967,10.4238],[8.785,10.3356],[8.6601,10.1692],[8.559,9.6268],[8.6806,9.2619],[8.4836,8.9992],[8.2635,9.1532],[8.0998,9.005],[7.9509,9.3459],[7.8166,9.2507],[7.54,9.3514],[7.2617,9.2953],[7.2269,9.4536],[7.3381,9.5866],[7.2173,9.741],[7.2962,9.781],[7.2792,9.9776],[6.8921,10.1052],[7.0675,10.2989],[6.9445,10.3668],[6.8352,10.6231],[6.4267,10.5736],[6.2081,10.3658],[6.0931,10.4826],[6.1221,10.8316],[6.3228,11.0322],[6.6864,11.0763],[6.8818,11.3661],[7.1865,11.1122],[7.2422,11.2634],[7.4668,11.3688],[7.6606,11.2746],[8.1032,11.4955],[8.1343,11.3401],[8.5424,11.082],[8.5584,10.7467],[8.4807,10.6712],[8.7413,10.549]]]}},{"type":"Feature","properties":{"id":"IT-MI","name":"Milan","country":"Italy","iso":"ITA"},"geometry":{"type":"Polygon","coordinates":[[[9.4964,45.6453],[9.5301,45.5417],[9.378,45.3063],[8.983,45.265],[8.7052,45.5568],[9.1078,45.6227],[9.3243,45.539],[9.4964,45.6453]]]}},{"type":"Feature","properties":{"id":"FR-45","name":"Loiret","country":"France","iso":"FRA"},"geometry":{"type":"Polygon","coordinates":[[[1.5991,47.7353],[1.5214,48.0294],[1.8545,48.0862],[1.9884,48.2767],[2.1977,48.3387],[2.3995,48.3145],[2.5137,48.2066],[2.4668,48.1243],[2.9566,48.1543],[3.1179,48.0008],[2.9924,47.7924],[2.8349,47.7491],[2.9693,47.5676],[2.8186,47.4986],[1.5991,47.7353]]]}},{"type":"Feature","properties":{"id":"FR-75","name":"Paris","country":"France","iso":"FRA"},"geometry":{"type":"Polygon","coordinates":[[[2.2354,48.8338],[2.2666,48.9011],[2.4734,48.8592],[2.4434,48.8158],[2.2354,48.8338]]]}},{"type":"Feature","properties":{"id":"FR-93","name":"Seine-Saint-Denis","country":"France","iso":"FRA"},"geometry":{"type":"Polygon","coordinates":[[[2.2666,48.9011],[2.5642,49.0073],[2.5924,48.8075],[2.3916,48.897],[2.2666,48.9011]]]}},{"type":"Feature","properties":{"id":"FR-91","name":"Essonne","country":"France","iso":"FRA"},"geometry":{"type":"Polygon","coordinates":[[[1.9204,48.4614],[2.2087,48.7756],[2.576,48.6733],[2.5262,48.4207],[2.3907,48.3136],[1.9723,48.2842],[1.9204,48.4614]]]}},{"type":"Feature","properties":{"id":"FR-94","name":"Val-de-Marne","country":"France","iso":"FRA"},"geometry":{"type":"Polygon","coordinates":[[[2.4734,48.8592],[2.5924,48.8075],[2.5717,48.692],[2.3208,48.7487],[2.4734,48.8592]]]}},{"type":"Feature","properties":{"id":"GB-LDS","name":"Leeds","country":"United Kingdom","iso":"GBR"},"geometry":{"type":"Polygon","coordinates":[[[-1.6472,53.7641],[-1.7286,53.9027],[-1.2942,53.9255],[-1.3314,53.7174],[-1.6472,53.7641]]]}},{"type":"Feature","properties":{"id":"GB-MAN","name":"Manchester","country":"United Kingdom","iso":"GBR"},"geometry":{"type":"Polygon","coordinates":[[[-2.2603,53.3449],[-2.3053,53.5041],[-2.1823,53.5257],[-2.2603,53.3449]]]}},{"type":"Feature","properties":{"id":"GB-COV","name":"Coventry","country":"United Kingdom","iso":"GBR"},"geometry":{"type":"Polygon","coordinates":[[[-1.64,52.3508],[-1.6195,52.4444],[-1.4381,52.4294],[-1.4628,52.3658],[-1.64,52.3508]]]}},{"type":"Feature","properties":{"id":"GB-BIR","name":"Birmingham","country":"United Kingdom","iso":"GBR"},"geometry":{"type":"Polygon","coordinates":[[[-1.7411,52.4975],[-1.8354,52.3806],[-2.0306,52.4369],[-1.8317,52.5877],[-1.7411,52.4975]]]}},{"type":"Feature","properties":{"id":"GB-WLV","name":"Wolverhampton","country":"United Kingdom","iso":"GBR"},"geometry":{"type":"Polygon","coordinates":[[[-2.0509,52.6174],[-2.1261,52.5444],[-2.2006,52.5794],[-2.1311,52.6294],[-2.0509,52.6174]]]}}]}